{"type":"FeatureCollection","source":"USGS Open-File Report 98-428 (Hoblitt and others, 1998); digital data USGS OFR 2007-1220","features":[{"type":"Feature","properties":{"zone":"case3"},"geometry":{"type":"Polygon","coordinates":[[[-121.7825,46.7795],[-121.7641,46.7786],[-121.7686,46.7759],[-121.779,46.7726],[-121.784,46.7705],[-121.785,46.7689],[-121.785,46.767],[-121.7882,46.7644],[-121.7938,46.7619],[-121.7991,46.7584],[-121.8005,46.7556],[-121.8009,46.7524],[-121.8039,46.7491],[-121.8079,46.7461],[-121.8134,46.7378],[-121.8169,46.7341],[-121.8187,46.7332],[-121.8231,46.7326],[-121.8274,46.7341],[-121.8284,46.7361],[-121.8276,46.7383],[-121.8143,46.7506],[-121.8114,46.7539],[-121.8099,46.7571],[-121.7992,46.7631],[-121.7967,46.7669],[-121.7916,46.7713],[-121.7857,46.7751],[-121.7825,46.7795]]]}},{"type":"Feature","properties":{"zone":"case3"},"geometry":{"type":"Polygon","coordinates":[[[-121.6534,46.7828],[-121.6456,46.784],[-121.6424,46.7798],[-121.6338,46.7712],[-121.6242,46.7525],[-121.623,46.743],[-121.6232,46.7405],[-121.6245,46.739],[-121.6263,46.7385],[-121.6301,46.739],[-121.6387,46.7468],[-121.6427,46.7536],[-121.6469,46.755],[-121.6584,46.7569],[-121.6607,46.7583],[-121.6689,46.7611],[-121.6961,46.7687],[-121.6995,46.7705],[-121.702,46.7733],[-121.7025,46.776],[-121.6965,46.7762],[-121.6962,46.7752],[-121.6938,46.7727],[-121.6871,46.7694],[-121.6769,46.7673],[-121.6685,46.7638],[-121.657,46.7601],[-121.6457,46.7581],[-121.6409,46.7585],[-121.6386,46.7609],[-121.6381,46.7628],[-121.6383,46.7651],[-121.6416,46.7686],[-121.6485,46.7737],[-121.6511,46.778],[-121.6529,46.7796],[-121.6534,46.7828]]]}},{"type":"Feature","properties":{"zone":"case3"},"geometry":{"type":"Polygon","coordinates":[[[-121.803,46.7881],[-121.7928,46.7866],[-121.7962,46.7818],[-121.8042,46.7759],[-121.8186,46.768],[-121.8333,46.7582],[-121.8358,46.7556],[-121.8412,46.7469],[-121.8478,46.7412],[-121.8512,46.7346],[-121.8549,46.734],[-121.8562,46.7344],[-121.8576,46.7357],[-121.8574,46.7381],[-121.8552,46.7422],[-121.8464,46.7488],[-121.844,46.7567],[-121.842,46.7603],[-121.8218,46.7743],[-121.8106,46.7805],[-121.8057,46.7845],[-121.803,46.7881]]]}},{"type":"Feature","properties":{"zone":"case3"},"geometry":{"type":"Polygon","coordinates":[[[-121.8403,46.8065],[-121.8384,46.8039],[-121.8429,46.8035],[-121.859,46.7997],[-121.8634,46.7982],[-121.8722,46.7977],[-121.8743,46.7971],[-121.8751,46.7926],[-121.8772,46.7891],[-121.8782,46.7852],[-121.877,46.7815],[-121.8728,46.7767],[-121.8714,46.7726],[-121.871,46.7661],[-121.8719,46.7593],[-121.8744,46.7566],[-121.8803,46.7523],[-121.8841,46.7475],[-121.886,46.7415],[-121.8876,46.7388],[-121.8902,46.7377],[-121.8946,46.7377],[-121.8965,46.7383],[-121.8976,46.7404],[-121.8963,46.7438],[-121.8825,46.7555],[-121.8803,46.7581],[-121.8783,46.762],[-121.8781,46.7693],[-121.8794,46.7717],[-121.8799,46.7749],[-121.8834,46.7778],[-121.8865,46.7844],[-121.8873,46.7888],[-121.8873,46.7935],[-121.8844,46.7955],[-121.8802,46.7961],[-121.8786,46.7971],[-121.8768,46.7996],[-121.8667,46.8011],[-121.8579,46.8035],[-121.8431,46.8052],[-121.8403,46.8065]]]}},{"type":"Feature","properties":{"zone":"case3"},"geometry":{"type":"Polygon","coordinates":[[[-121.6137,46.8257],[-121.6094,46.829],[-121.6022,46.8278],[-121.597,46.8248],[-121.5921,46.8213],[-121.5877,46.817],[-121.5841,46.8148],[-121.5773,46.812],[-121.5636,46.8083],[-121.5559,46.8087],[-121.5525,46.8067],[-121.552,46.8051],[-121.5526,46.8033],[-121.5535,46.8019],[-121.557,46.8007],[-121.5621,46.8017],[-121.5915,46.8129],[-121.5981,46.8172],[-121.6007,46.8209],[-121.6071,46.824],[-121.6137,46.8257]]]}},{"type":"Feature","properties":{"zone":"case3"},"geometry":{"type":"Polygon","coordinates":[[[-121.9004,46.8495],[-121.8943,46.8471],[-121.8868,46.8469],[-121.8887,46.8431],[-121.8946,46.8437],[-121.9004,46.8454],[-121.9203,46.8566],[-121.9286,46.86],[-121.9367,46.859],[-121.9375,46.8579],[-121.9365,46.8558],[-121.9246,46.8454],[-121.9209,46.8409],[-121.9196,46.8378],[-121.9164,46.834],[-121.9154,46.8284],[-121.9137,46.8237],[-121.9093,46.8163],[-121.9027,46.8096],[-121.8973,46.8085],[-121.8922,46.8087],[-121.89,46.8057],[-121.893,46.8046],[-121.8994,46.8044],[-121.9024,46.8051],[-121.9052,46.8065],[-121.9081,46.8091],[-121.9202,46.8246],[-121.922,46.8248],[-121.9222,46.8294],[-121.9235,46.8347],[-121.9274,46.841],[-121.9292,46.8427],[-121.9351,46.8458],[-121.9451,46.8554],[-121.9525,46.8605],[-121.9661,46.868],[-121.9703,46.8664],[-121.9723,46.867],[-121.9755,46.8704],[-121.9798,46.8729],[-121.9811,46.8746],[-121.9813,46.8761],[-121.9786,46.8794],[-121.9725,46.879],[-121.9699,46.8782],[-121.9581,46.8728],[-121.9518,46.8714],[-121.9427,46.8658],[-121.927,46.8631],[-121.9186,46.8606],[-121.9078,46.8553],[-121.9004,46.8495]]]}},{"type":"Feature","properties":{"zone":"case3"},"geometry":{"type":"Polygon","coordinates":[[[-121.5956,46.8982],[-121.5695,46.9037],[-121.5548,46.9088],[-121.5524,46.9085],[-121.5502,46.907],[-121.5491,46.9053],[-121.5497,46.9024],[-121.573,46.8963],[-121.5817,46.8933],[-121.603,46.8892],[-121.608,46.8878],[-121.6095,46.8876],[-121.6102,46.8889],[-121.6086,46.8925],[-121.6191,46.897],[-121.6276,46.8993],[-121.6392,46.8991],[-121.6657,46.8928],[-121.6683,46.8899],[-121.6701,46.8827],[-121.6737,46.8782],[-121.6772,46.8751],[-121.6919,46.8806],[-121.6874,46.8826],[-121.6853,46.8843],[-121.6733,46.8962],[-121.6692,46.8982],[-121.663,46.8998],[-121.6524,46.9002],[-121.639,46.903],[-121.632,46.9037],[-121.6287,46.9034],[-121.6116,46.8987],[-121.5997,46.8976],[-121.5956,46.8982]]]}},{"type":"Feature","properties":{"zone":"case3"},"geometry":{"type":"Polygon","coordinates":[[[-121.8736,46.9166],[-121.8751,46.9134],[-121.884,46.9123],[-121.8871,46.9111],[-121.8882,46.91],[-121.8861,46.9068],[-121.8779,46.8983],[-121.8753,46.894],[-121.8713,46.8898],[-121.8755,46.8859],[-121.8904,46.9017],[-121.8948,46.906],[-121.8971,46.9073],[-121.9018,46.909],[-121.9066,46.91],[-121.9198,46.9116],[-121.9232,46.9136],[-121.9325,46.9156],[-121.9511,46.918],[-121.9532,46.9188],[-121.9547,46.9206],[-121.9547,46.9224],[-121.9542,46.9237],[-121.9517,46.9246],[-121.9482,46.9246],[-121.9453,46.9254],[-121.9368,46.9246],[-121.9242,46.9222],[-121.9154,46.9179],[-121.9096,46.9167],[-121.8898,46.9164],[-121.8785,46.9171],[-121.8736,46.9166]]]}},{"type":"Feature","properties":{"zone":"case3"},"geometry":{"type":"Polygon","coordinates":[[[-121.7709,46.9303],[-121.7849,46.926],[-121.7875,46.9297],[-121.7906,46.9416],[-121.7921,46.9447],[-121.7947,46.9468],[-121.7989,46.948],[-121.7997,46.9497],[-121.7995,46.9516],[-121.7971,46.9578],[-121.7971,46.9602],[-121.7979,46.9613],[-121.8044,46.9618],[-121.8135,46.9638],[-121.8221,46.9691],[-121.8291,46.9706],[-121.8329,46.9759],[-121.8394,46.9817],[-121.848,46.9861],[-121.8513,46.9891],[-121.8538,46.9929],[-121.854,46.9942],[-121.8533,46.996],[-121.8493,46.9978],[-121.8432,46.9964],[-121.8378,46.9922],[-121.836,46.9893],[-121.83,46.9833],[-121.8248,46.9801],[-121.8149,46.9759],[-121.8087,46.9707],[-121.7954,46.965],[-121.7914,46.9622],[-121.7896,46.9596],[-121.7892,46.9572],[-121.7914,46.9519],[-121.7902,46.9464],[-121.7812,46.9397],[-121.7709,46.9303]]]}},{"type":"Feature","properties":{"zone":"case3"},"geometry":{"type":"Polygon","coordinates":[[[-121.7344,46.9255],[-121.7338,46.9265],[-121.7213,46.9329],[-121.717,46.9361],[-121.7056,46.9419],[-121.7036,46.9439],[-121.7056,46.9524],[-121.7079,46.9553],[-121.7123,46.9585],[-121.7155,46.9622],[-121.7182,46.9716],[-121.7182,46.9733],[-121.7175,46.9768],[-121.7087,46.9848],[-121.7085,46.9867],[-121.7097,46.9901],[-121.7099,46.9936],[-121.7074,46.9998],[-121.7047,47.0029],[-121.6992,47.0025],[-121.6984,47.0014],[-121.6984,46.9958],[-121.7001,46.9943],[-121.7027,46.9883],[-121.705,46.9804],[-121.7114,46.973],[-121.7124,46.9696],[-121.7103,46.9644],[-121.7031,46.9605],[-121.7002,46.9582],[-121.6984,46.9556],[-121.697,46.951],[-121.6988,46.9428],[-121.7067,46.9375],[-121.7182,46.9281],[-121.7212,46.9251],[-121.7234,46.9216],[-121.7235,46.919],[-121.7344,46.9255]]]}},{"type":"Feature","properties":{"zone":"case2"},"geometry":{"type":"Polygon","coordinates":[[[-121.8744,46.7241],[-121.8884,46.7271],[-121.8906,46.728],[-121.8938,46.7316],[-121.8974,46.7336],[-121.906,46.7326],[-121.9106,46.7292],[-121.9206,46.731],[-121.9324,46.7322],[-121.9411,46.7343],[-121.9481,46.7349],[-121.9504,46.7356],[-121.9552,46.7387],[-121.9592,46.7399],[-121.9632,46.7408],[-121.9786,46.7416],[-121.9965,46.7468],[-122.0008,46.7458],[-122.0072,46.7429],[-122.0121,46.7424],[-122.0253,46.7396],[-122.0312,46.7376],[-122.0363,46.7387],[-122.0432,46.7425],[-122.0659,46.7457],[-122.075,46.7499],[-122.0795,46.7509],[-122.0837,46.751],[-122.11,46.7459],[-122.1121,46.746],[-122.1173,46.7486],[-122.1272,46.7506],[-122.1374,46.7509],[-122.1416,46.7504],[-122.1605,46.7532],[-122.176,46.7514],[-122.1858,46.745],[-122.1895,46.7438],[-122.1926,46.7438],[-122.195,46.7441],[-122.1968,46.7455],[-122.1963,46.7548],[-122.1966,46.7559],[-122.1986,46.7569],[-122.1964,46.7649],[-122.1865,46.7621],[-122.1813,46.7615],[-122.1556,46.7626],[-122.1432,46.7603],[-122.1402,46.7603],[-122.139,46.759],[-122.1335,46.7572],[-122.1197,46.7566],[-122.1101,46.7555],[-122.1059,46.7532],[-122.1037,46.7528],[-122.0916,46.7537],[-122.0749,46.7539],[-122.0629,46.7527],[-122.0519,46.7528],[-122.0327,46.7479],[-122.0284,46.7477],[-122.0211,46.7486],[-122.0051,46.7543],[-121.9966,46.7557],[-121.9921,46.7552],[-121.9821,46.7524],[-121.9789,46.7497],[-121.9742,46.7481],[-121.9726,46.7483],[-121.9693,46.7503],[-121.9676,46.7533],[-121.9657,46.7551],[-121.9639,46.7557],[-121.9579,46.7567],[-121.9498,46.7561],[-121.9427,46.7538],[-121.9359,46.7529],[-121.9311,46.7511],[-121.9241,46.7479],[-121.9209,46.7425],[-121.9106,46.7388],[-121.9034,46.7395],[-121.8845,46.7388],[-121.8803,46.7375],[-121.876,46.7343],[-121.8721,46.7333],[-121.8662,46.7336],[-121.8616,46.7347],[-121.8404,46.7327],[-121.8357,46.7307],[-121.8315,46.7308],[-121.831,46.732],[-121.8218,46.7301],[-121.8257,46.7255],[-121.8339,46.7261],[-121.8415,46.7251],[-121.8472,46.725],[-121.8554,46.7269],[-121.8602,46.7262],[-121.8641,46.7273],[-121.8701,46.7277],[-121.8723,46.7269],[-121.8744,46.7241]],[[-121.9345,46.7361],[-121.9335,46.7369],[-121.9346,46.7377],[-121.9411,46.7403],[-121.9424,46.7393],[-121.9424,46.7381],[-121.9407,46.7372],[-121.9345,46.7361]]]}},{"type":"Feature","properties":{"zone":"case2"},"geometry":{"type":"Polygon","coordinates":[[[-122.1407,46.4572],[-122.1537,46.4587],[-122.1605,46.4606],[-122.1646,46.4626],[-122.1657,46.4638],[-122.1654,46.4762],[-122.1607,46.4749],[-122.1559,46.4745],[-122.1305,46.4775],[-122.1248,46.4804],[-122.1239,46.4813],[-122.1233,46.4845],[-122.1199,46.4857],[-122.1116,46.485],[-122.1095,46.4838],[-122.1081,46.4819],[-122.1067,46.4822],[-122.1039,46.483],[-122.0999,46.486],[-122.0878,46.4907],[-122.0859,46.4934],[-122.0821,46.4954],[-122.0801,46.4952],[-122.0779,46.4917],[-122.0764,46.4914],[-122.0653,46.491],[-122.0573,46.4918],[-122.0572,46.4942],[-122.0579,46.4962],[-122.0577,46.5002],[-122.0548,46.5047],[-122.0517,46.5079],[-122.046,46.512],[-122.0288,46.5208],[-122.0232,46.5245],[-122.0208,46.5265],[-122.0203,46.5278],[-122.0216,46.5313],[-122.0106,46.5308],[-121.997,46.5318],[-121.9926,46.5304],[-121.9876,46.5298],[-121.9722,46.5345],[-121.9652,46.5333],[-121.9575,46.5343],[-121.946,46.5341],[-121.9373,46.5352],[-121.9348,46.5351],[-121.93,46.5328],[-121.9256,46.5318],[-121.919,46.5326],[-121.9144,46.5315],[-121.9093,46.5326],[-121.9013,46.5393],[-121.898,46.5402],[-121.8946,46.5402],[-121.888,46.5389],[-121.8826,46.5387],[-121.8747,46.5398],[-121.863,46.5352],[-121.8582,46.5345],[-121.8495,46.5344],[-121.8356,46.5319],[-121.829,46.532],[-121.8209,46.5344],[-121.8183,46.5342],[-121.8117,46.5317],[-121.809,46.5318],[-121.8031,46.5341],[-121.7926,46.5363],[-121.7862,46.5389],[-121.7833,46.539],[-121.7769,46.5408],[-121.7747,46.5424],[-121.7704,46.5473],[-121.7643,46.5512],[-121.7605,46.5511],[-121.7569,46.5532],[-121.7431,46.5566],[-121.7415,46.5605],[-121.7338,46.5636],[-121.73,46.5658],[-121.7266,46.5688],[-121.7244,46.5695],[-121.7195,46.5696],[-121.7094,46.5734],[-121.7065,46.576],[-121.7043,46.5854],[-121.7037,46.5871],[-121.7007,46.5905],[-121.7005,46.5929],[-121.7012,46.594],[-121.7012,46.5966],[-121.6995,46.6012],[-121.6957,46.6047],[-121.6916,46.6117],[-121.6885,46.6135],[-121.6879,46.6149],[-121.6899,46.6185],[-121.6891,46.6199],[-121.684,46.6223],[-121.6771,46.627],[-121.6668,46.6294],[-121.6637,46.631],[-121.6609,46.6336],[-121.6585,46.6387],[-121.6493,46.6428],[-121.6425,46.6467],[-121.6353,46.6531],[-121.6293,46.657],[-121.6234,46.6599],[-121.6199,46.6635],[-121.6182,46.6678],[-121.6186,46.6709],[-121.6219,46.675],[-121.6235,46.682],[-121.6215,46.6874],[-121.6231,46.6899],[-121.6199,46.6964],[-121.6202,46.6989],[-121.6193,46.7],[-121.6194,46.7063],[-121.6206,46.7111],[-121.6261,46.719],[-121.6264,46.7224],[-121.6251,46.7268],[-121.6263,46.73],[-121.6224,46.7309],[-121.6203,46.7274],[-121.6177,46.7249],[-121.6152,46.7195],[-121.6152,46.7174],[-121.6162,46.7153],[-121.6163,46.712],[-121.6127,46.7013],[-121.6137,46.6962],[-121.6193,46.6837],[-121.6186,46.681],[-121.619,46.6798],[-121.6174,46.6755],[-121.6146,46.6742],[-121.6108,46.6748],[-121.6074,46.6731],[-121.6071,46.6713],[-121.6078,46.6664],[-121.6065,46.6657],[-121.6046,46.6657],[-121.5998,46.6673],[-121.5981,46.6662],[-121.591,46.6738],[-121.5846,46.6777],[-121.5825,46.6799],[-121.581,46.6849],[-121.581,46.694],[-121.5835,46.6979],[-121.5796,46.7095],[-121.5788,46.7239],[-121.5781,46.7267],[-121.5679,46.7406],[-121.5651,46.7475],[-121.5601,46.7514],[-121.5596,46.7555],[-121.5553,46.7607],[-121.555,46.7622],[-121.5538,46.7701],[-121.5529,46.7719],[-121.5534,46.7734],[-121.5529,46.775],[-121.5539,46.7812],[-121.5576,46.7889],[-121.5559,46.793],[-121.5557,46.7954],[-121.5598,46.8],[-121.5538,46.7999],[-121.5525,46.7962],[-121.5525,46.7926],[-121.5547,46.7889],[-121.5515,46.7829],[-121.5479,46.7729],[-121.5475,46.7701],[-121.5487,46.7636],[-121.5534,46.7581],[-121.556,46.7538],[-121.5566,46.7504],[-121.5557,46.7483],[-121.5601,46.7383],[-121.5616,46.737],[-121.565,46.7359],[-121.5708,46.7319],[-121.5745,46.727],[-121.5766,46.7165],[-121.5758,46.7092],[-121.5783,46.7069],[-121.5787,46.7042],[-121.5807,46.6998],[-121.5795,46.6955],[-121.5775,46.6929],[-121.5777,46.6913],[-121.579,46.6893],[-121.578,46.685],[-121.5789,46.6817],[-121.5812,46.6789],[-121.5814,46.6766],[-121.5877,46.6735],[-121.5903,46.6705],[-121.5936,46.668],[-121.5958,46.6645],[-121.6,46.6613],[-121.6023,46.6559],[-121.6062,46.6519],[-121.6108,46.6499],[-121.6192,46.6475],[-121.6338,46.6389],[-121.6443,46.6344],[-121.6713,46.6125],[-121.6674,46.6115],[-121.6656,46.6102],[-121.664,46.6089],[-121.6615,46.6048],[-121.6651,46.6004],[-121.6694,46.5974],[-121.671,46.5903],[-121.6722,46.5882],[-121.687,46.5768],[-121.6961,46.5725],[-121.6993,46.5686],[-121.7074,46.5631],[-121.7183,46.5582],[-121.7201,46.5562],[-121.7218,46.5553],[-121.7316,46.5517],[-121.7342,46.5501],[-121.7382,46.5493],[-121.7631,46.5371],[-121.765,46.5347],[-121.7738,46.5302],[-121.7787,46.529],[-121.7903,46.5228],[-121.7929,46.5219],[-121.7979,46.5212],[-121.8057,46.5185],[-121.8177,46.5178],[-121.8193,46.518],[-121.8262,46.5215],[-121.8284,46.5216],[-121.8384,46.5193],[-121.8425,46.5193],[-121.8454,46.5205],[-121.8477,46.5204],[-121.8541,46.518],[-121.8551,46.5165],[-121.8563,46.516],[-121.8709,46.5186],[-121.8744,46.5187],[-121.8778,46.5177],[-121.8819,46.5178],[-121.8826,46.5189],[-121.8803,46.5221],[-121.8826,46.5227],[-121.8964,46.5224],[-121.9008,46.5197],[-121.9048,46.5194],[-121.9125,46.5203],[-121.9165,46.5215],[-121.9199,46.5214],[-121.9295,46.5238],[-121.9379,46.5225],[-121.9426,46.5229],[-121.9451,46.5224],[-121.9455,46.521],[-121.943,46.5196],[-121.9358,46.5178],[-121.9354,46.5168],[-121.937,46.5159],[-121.9371,46.5141],[-121.935,46.5113],[-121.9348,46.5097],[-121.9357,46.5088],[-121.9397,46.5071],[-121.9463,46.506],[-121.9561,46.5077],[-121.9621,46.5073],[-121.9624,46.5063],[-121.9595,46.5053],[-121.9596,46.5036],[-121.9607,46.5029],[-121.9699,46.4997],[-121.9807,46.4977],[-121.9902,46.4949],[-122.0055,46.4954],[-122.0117,46.4965],[-122.0189,46.4961],[-122.0293,46.4923],[-122.0429,46.4896],[-122.0466,46.4893],[-122.0514,46.4901],[-122.0534,46.4886],[-122.0556,46.4853],[-122.0583,46.4837],[-122.0603,46.483],[-122.0666,46.483],[-122.0688,46.4822],[-122.0699,46.4804],[-122.0697,46.479],[-122.0679,46.4762],[-122.0637,46.4737],[-122.0604,46.4731],[-122.0563,46.471],[-122.0462,46.4679],[-122.0422,46.4628],[-122.0417,46.4618],[-122.0421,46.4608],[-122.0461,46.4627],[-122.0526,46.4642],[-122.0672,46.4641],[-122.0753,46.467],[-122.0804,46.4672],[-122.0852,46.4694],[-122.087,46.4696],[-122.0903,46.4684],[-122.0896,46.466],[-122.0905,46.465],[-122.0965,46.4636],[-122.1027,46.464],[-122.1102,46.4632],[-122.1131,46.4643],[-122.1169,46.4645],[-122.1231,46.4628],[-122.133,46.4585],[-122.1407,46.4572]],[[-122.1395,46.4611],[-122.1357,46.4616],[-122.1254,46.4648],[-122.1201,46.4672],[-122.121,46.4687],[-122.125,46.4693],[-122.1586,46.4663],[-122.1588,46.465],[-122.1582,46.464],[-122.1547,46.4621],[-122.1395,46.4611]],[[-122.1062,46.4662],[-122.1025,46.4667],[-122.0999,46.4679],[-122.0979,46.4712],[-122.0974,46.474],[-122.1012,46.4752],[-122.1056,46.4756],[-122.1093,46.4739],[-122.1115,46.47],[-122.1115,46.4676],[-122.1105,46.4669],[-122.1062,46.4662]],[[-121.974,46.5175],[-121.9727,46.5184],[-121.9734,46.5207],[-121.9752,46.5208],[-121.9764,46.5198],[-121.9786,46.5202],[-121.9802,46.5215],[-121.9883,46.5228],[-121.9904,46.5225],[-121.9909,46.521],[-121.9792,46.5182],[-121.976,46.5182],[-121.974,46.5175]],[[-122.0039,46.5177],[-122.0009,46.5183],[-122.0009,46.5197],[-122.0023,46.5207],[-122.0081,46.5236],[-122.0115,46.524],[-122.0129,46.5234],[-122.0076,46.5181],[-122.0039,46.5177]],[[-121.6197,46.7173],[-121.6179,46.7181],[-121.6177,46.7196],[-121.6195,46.7218],[-121.6212,46.7217],[-121.6219,46.72],[-121.6213,46.7182],[-121.6197,46.7173]]]}},{"type":"Feature","properties":{"zone":"case2"},"geometry":{"type":"Polygon","coordinates":[[[-121.6925,47.0304],[-121.6939,47.0279],[-121.6931,47.0222],[-121.6946,47.0184],[-121.6981,47.0156],[-121.699,47.0142],[-121.6987,47.0125],[-121.6965,47.0092],[-121.7042,47.0099],[-121.7044,47.0287],[-121.7026,47.0343],[-121.6993,47.0414],[-121.698,47.0499],[-121.6962,47.0537],[-121.693,47.0572],[-121.691,47.0607],[-121.6865,47.072],[-121.6846,47.0753],[-121.6755,47.0847],[-121.6663,47.0905],[-121.6567,47.098],[-121.6528,47.1002],[-121.6363,47.1057],[-121.6329,47.1078],[-121.629,47.1117],[-121.6273,47.1145],[-121.6261,47.1218],[-121.6275,47.1294],[-121.6308,47.1337],[-121.6504,47.1475],[-121.6583,47.1505],[-121.6681,47.1514],[-121.6776,47.1485],[-121.6929,47.1471],[-121.7073,47.1481],[-121.7141,47.1496],[-121.7222,47.1523],[-121.7307,47.1573],[-121.7382,47.1604],[-121.7584,47.1639],[-121.7682,47.1638],[-121.7837,47.1673],[-121.7931,47.1664],[-121.7959,47.165],[-121.797,47.1636],[-121.8013,47.1608],[-121.8063,47.1557],[-121.812,47.1482],[-121.8152,47.1462],[-121.8173,47.1403],[-121.8183,47.1394],[-121.8219,47.139],[-121.8289,47.1422],[-121.8315,47.1427],[-121.8378,47.1547],[-121.8336,47.1558],[-121.8281,47.156],[-121.8103,47.1663],[-121.8065,47.1678],[-121.8006,47.1721],[-121.7922,47.1758],[-121.7838,47.1764],[-121.7768,47.1743],[-121.7547,47.1655],[-121.7476,47.1645],[-121.7414,47.1648],[-121.7261,47.1575],[-121.71,47.154],[-121.6828,47.1531],[-121.6757,47.1547],[-121.6621,47.1603],[-121.6595,47.1602],[-121.6571,47.1592],[-121.6502,47.1539],[-121.6479,47.153],[-121.6419,47.1524],[-121.6319,47.149],[-121.6244,47.1461],[-121.6204,47.1433],[-121.6173,47.1421],[-121.6157,47.1385],[-121.6104,47.131],[-121.6068,47.1228],[-121.6029,47.1175],[-121.5969,47.1122],[-121.5951,47.107],[-121.5907,47.1014],[-121.5869,47.0939],[-121.5838,47.0895],[-121.5816,47.0789],[-121.5804,47.0764],[-121.5778,47.074],[-121.5732,47.0599],[-121.5722,47.0547],[-121.5697,47.0509],[-121.5688,47.0461],[-121.566,47.0409],[-121.5624,47.0365],[-121.554,47.0303],[-121.544,47.0272],[-121.5403,47.027],[-121.5393,47.0255],[-121.5323,47.0215],[-121.5306,47.0195],[-121.5275,47.0134],[-121.528,47.0102],[-121.527,47.0073],[-121.5271,46.9998],[-121.5285,46.9952],[-121.5348,46.9829],[-121.5351,46.9751],[-121.5333,46.9705],[-121.5297,46.9649],[-121.5259,46.9606],[-121.5248,46.9577],[-121.5254,46.9562],[-121.5304,46.95],[-121.5318,46.9467],[-121.532,46.9317],[-121.5355,46.9251],[-121.5386,46.9222],[-121.5415,46.9174],[-121.542,46.9134],[-121.5496,46.9143],[-121.5471,46.9229],[-121.5408,46.9321],[-121.5379,46.9383],[-121.5358,46.947],[-121.5309,46.956],[-121.534,46.9635],[-121.5386,46.9695],[-121.5419,46.979],[-121.5404,46.9841],[-121.5336,46.9994],[-121.5337,47.0054],[-121.5348,47.0092],[-121.5391,47.0171],[-121.5413,47.0181],[-121.5458,47.0188],[-121.5537,47.0235],[-121.5665,47.0354],[-121.5705,47.0401],[-121.5746,47.0553],[-121.5785,47.0598],[-121.5791,47.0637],[-121.5802,47.0658],[-121.5871,47.0721],[-121.5889,47.0721],[-121.5904,47.0712],[-121.592,47.0716],[-121.5912,47.077],[-121.5928,47.0811],[-121.5924,47.0852],[-121.5942,47.0929],[-121.5973,47.0972],[-121.6017,47.1013],[-121.6036,47.105],[-121.6073,47.1099],[-121.6092,47.1111],[-121.6162,47.1111],[-121.6228,47.1086],[-121.6278,47.104],[-121.6299,47.1033],[-121.6378,47.1024],[-121.6431,47.1011],[-121.6488,47.0981],[-121.657,47.0953],[-121.6582,47.0944],[-121.6604,47.0911],[-121.6698,47.0842],[-121.6718,47.0808],[-121.6779,47.0746],[-121.6814,47.0696],[-121.6818,47.0664],[-121.6852,47.0623],[-121.6884,47.0556],[-121.6899,47.0508],[-121.6904,47.0322],[-121.6925,47.0304]]]}},{"type":"Feature","properties":{"zone":"case2"},"geometry":{"type":"Polygon","coordinates":[[[-122.3329,47.2542],[-122.3336,47.2551],[-122.3333,47.2559],[-122.3322,47.2571],[-122.3308,47.2574],[-122.3276,47.2561],[-122.3244,47.2532],[-122.3245,47.2484],[-122.327,47.2422],[-122.3271,47.239],[-122.3221,47.2296],[-122.3118,47.2223],[-122.3067,47.2199],[-122.2999,47.2179],[-122.2958,47.2146],[-122.2774,47.2071],[-122.2568,47.203],[-122.2496,47.2025],[-122.2468,47.203],[-122.245,47.2053],[-122.2499,47.2117],[-122.2506,47.2164],[-122.2538,47.2248],[-122.2512,47.233],[-122.2519,47.2383],[-122.2546,47.244],[-122.2578,47.2548],[-122.2611,47.26],[-122.2617,47.2634],[-122.2613,47.2661],[-122.2578,47.2791],[-122.2567,47.2804],[-122.2553,47.2809],[-122.2494,47.2763],[-122.2488,47.2737],[-122.249,47.2662],[-122.2465,47.2638],[-122.2454,47.2594],[-122.2433,47.2582],[-122.237,47.2615],[-122.2352,47.2611],[-122.235,47.2588],[-122.228,47.2522],[-122.2276,47.2482],[-122.2246,47.2413],[-122.224,47.2338],[-122.2266,47.2221],[-122.2223,47.2155],[-122.2164,47.2111],[-122.211,47.2045],[-122.2053,47.2001],[-122.2012,47.1946],[-122.2006,47.1921],[-122.2016,47.1846],[-122.2005,47.182],[-122.1963,47.1767],[-122.1958,47.1745],[-122.1958,47.1699],[-122.1991,47.1638],[-122.2033,47.1579],[-122.2044,47.1572],[-122.2072,47.1574],[-122.2117,47.1566],[-122.2174,47.154],[-122.2184,47.1502],[-122.221,47.1479],[-122.224,47.1428],[-122.2251,47.1386],[-122.2216,47.1244],[-122.2192,47.1191],[-122.2153,47.1135],[-122.2114,47.1093],[-122.2032,47.1059],[-122.1959,47.1018],[-122.1883,47.0958],[-122.1826,47.0891],[-122.1785,47.0876],[-122.1761,47.0878],[-122.165,47.0939],[-122.1565,47.0971],[-122.156,47.0981],[-122.1569,47.1],[-122.1553,47.101],[-122.1514,47.1021],[-122.1489,47.1041],[-122.1494,47.107],[-122.148,47.1089],[-122.1437,47.1127],[-122.1375,47.1142],[-122.1355,47.1156],[-122.1337,47.1151],[-122.1339,47.1135],[-122.1437,47.1076],[-122.1438,47.1051],[-122.1422,47.101],[-122.1311,47.0993],[-122.1129,47.1003],[-122.1008,47.0982],[-122.0952,47.0989],[-122.0871,47.097],[-122.0849,47.0956],[-122.0814,47.0948],[-122.08,47.0931],[-122.0801,47.0908],[-122.0747,47.0867],[-122.0671,47.0832],[-122.0652,47.0818],[-122.0634,47.0781],[-122.0596,47.0786],[-122.0583,47.078],[-122.0545,47.0733],[-122.0526,47.0726],[-122.0461,47.0732],[-122.0426,47.0711],[-122.0427,47.0645],[-122.0438,47.0599],[-122.0428,47.057],[-122.0438,47.0518],[-122.0419,47.0463],[-122.0374,47.0388],[-122.0356,47.0377],[-122.0337,47.0314],[-122.0273,47.0216],[-122.0252,47.0172],[-122.0236,47.0165],[-122.0202,47.016],[-122.0099,47.0129],[-121.9826,47.0014],[-121.9769,47.0006],[-121.9653,46.9974],[-121.9587,46.9975],[-121.9494,46.9939],[-121.9466,46.9936],[-121.9414,46.9947],[-121.9333,46.9934],[-121.9153,46.9998],[-121.9081,46.9994],[-121.8965,47.001],[-121.8911,47.0012],[-121.8856,47.0003],[-121.8621,46.9991],[-121.8639,46.9939],[-121.8801,46.9943],[-121.8886,46.994],[-121.9021,46.9947],[-121.9146,46.9942],[-121.9264,46.9917],[-121.9303,46.9898],[-121.9353,46.9885],[-121.9482,46.9892],[-121.9538,46.9882],[-121.9601,46.9908],[-121.9697,46.9918],[-121.9796,46.9951],[-121.9834,46.9958],[-121.9974,47.0015],[-122.0104,47.0086],[-122.0269,47.0137],[-122.0315,47.0169],[-122.0371,47.0265],[-122.0382,47.0295],[-122.0377,47.0339],[-122.0386,47.0374],[-122.0424,47.0425],[-122.0462,47.0515],[-122.0463,47.054],[-122.0451,47.0565],[-122.0468,47.0598],[-122.046,47.0647],[-122.0449,47.0655],[-122.0452,47.0703],[-122.0469,47.0711],[-122.053,47.0708],[-122.0561,47.0724],[-122.0595,47.0759],[-122.0612,47.0764],[-122.0661,47.0759],[-122.0669,47.0772],[-122.0674,47.0807],[-122.0684,47.0816],[-122.0779,47.0857],[-122.0801,47.0883],[-122.0826,47.0901],[-122.0845,47.0927],[-122.0916,47.0957],[-122.0968,47.0965],[-122.1018,47.0944],[-122.104,47.0949],[-122.1114,47.0946],[-122.1177,47.0954],[-122.1266,47.0944],[-122.1329,47.095],[-122.1385,47.0939],[-122.1423,47.0961],[-122.145,47.0966],[-122.1477,47.0932],[-122.156,47.0907],[-122.1613,47.088],[-122.1631,47.0858],[-122.1626,47.0822],[-122.1643,47.0813],[-122.1715,47.08],[-122.1776,47.0796],[-122.1796,47.0786],[-122.1837,47.0753],[-122.1847,47.0737],[-122.1846,47.0666],[-122.1854,47.0642],[-122.19,47.0592],[-122.1977,47.0478],[-122.2078,47.0406],[-122.2068,47.0398],[-122.2003,47.0387],[-122.1981,47.0356],[-122.1987,47.0328],[-122.2036,47.0243],[-122.205,47.0201],[-122.2036,47.0174],[-122.2001,47.0132],[-122.1942,47.0085],[-122.1924,47.0076],[-122.1894,47.008],[-122.1899,47.0044],[-122.1894,47.0009],[-122.1872,47.0003],[-122.1797,47.0009],[-122.1778,47.0003],[-122.1732,46.9959],[-122.1733,46.9928],[-122.1719,46.9922],[-122.1637,46.9922],[-122.1615,46.9882],[-122.1499,46.9798],[-122.1451,46.9774],[-122.1317,46.9742],[-122.1287,46.9722],[-122.1224,46.9703],[-122.1091,46.968],[-122.1009,46.9646],[-122.0916,46.9637],[-122.0813,46.9581],[-122.0754,46.9579],[-122.0714,46.9569],[-122.0661,46.9524],[-122.0621,46.9478],[-122.0614,46.9455],[-122.0579,46.9398],[-122.0535,46.9367],[-122.0526,46.9342],[-122.0534,46.9293],[-122.0527,46.9253],[-122.0502,46.922],[-122.0496,46.9193],[-122.0407,46.9117],[-122.0352,46.9045],[-122.0298,46.9019],[-122.0244,46.901],[-122.0187,46.9014],[-122.0138,46.9029],[-122.0112,46.905],[-122.0059,46.9116],[-122.0012,46.9151],[-121.9979,46.9171],[-121.9828,46.9236],[-121.9727,46.9249],[-121.9606,46.9244],[-121.9601,46.9197],[-121.9696,46.9199],[-121.9767,46.9184],[-122.0053,46.9059],[-122.0073,46.9037],[-122.0074,46.9026],[-122.0063,46.9012],[-122.0085,46.8988],[-122.0086,46.8975],[-122.0078,46.8962],[-121.9881,46.8881],[-121.9823,46.8841],[-121.9871,46.874],[-121.9924,46.876],[-122.0028,46.8818],[-122.0212,46.887],[-122.0247,46.8872],[-122.0346,46.8914],[-122.0385,46.8938],[-122.0403,46.8956],[-122.0488,46.9063],[-122.0535,46.914],[-122.0597,46.9169],[-122.0586,46.919],[-122.0591,46.9257],[-122.0652,46.9385],[-122.0649,46.9429],[-122.0657,46.9471],[-122.0671,46.9499],[-122.0723,46.9534],[-122.0759,46.9545],[-122.0838,46.9542],[-122.0865,46.9557],[-122.0912,46.9607],[-122.0934,46.9615],[-122.102,46.9627],[-122.1087,46.9666],[-122.116,46.967],[-122.1365,46.974],[-122.1506,46.978],[-122.1517,46.9803],[-122.16,46.9848],[-122.1667,46.9898],[-122.1743,46.9908],[-122.1768,46.9922],[-122.178,46.9945],[-122.1821,46.997],[-122.186,46.9955],[-122.1873,46.9934],[-122.192,46.9894],[-122.1937,46.9895],[-122.1949,46.9903],[-122.1938,46.9926],[-122.1939,46.9937],[-122.2034,47.0002],[-122.2082,47.0045],[-122.2131,47.0122],[-122.2156,47.0189],[-122.2151,47.0212],[-122.2067,47.0295],[-122.2043,47.0372],[-122.2074,47.0387],[-122.2114,47.0397],[-122.2108,47.0421],[-122.2066,47.0482],[-122.1991,47.0569],[-122.1936,47.0595],[-122.1938,47.0616],[-122.1975,47.0684],[-122.2021,47.0724],[-122.2062,47.0746],[-122.2168,47.0782],[-122.2249,47.0834],[-122.2275,47.0858],[-122.2348,47.0956],[-122.2355,47.0973],[-122.2353,47.1001],[-122.2403,47.1086],[-122.2409,47.1121],[-122.2402,47.1141],[-122.2419,47.119],[-122.2412,47.1302],[-122.2426,47.1361],[-122.2426,47.1403],[-122.2422,47.1425],[-122.2377,47.1517],[-122.2335,47.1624],[-122.2327,47.1724],[-122.2338,47.1761],[-122.2359,47.1789],[-122.2486,47.1824],[-122.2498,47.1835],[-122.2511,47.1836],[-122.2538,47.1828],[-122.2568,47.1798],[-122.2621,47.1815],[-122.2698,47.1787],[-122.2766,47.1782],[-122.2787,47.1796],[-122.2897,47.1807],[-122.2922,47.1798],[-122.2955,47.1774],[-122.2977,47.1771],[-122.3074,47.179],[-122.31,47.1787],[-122.3141,47.1765],[-122.3157,47.1767],[-122.3154,47.1773],[-122.3166,47.181],[-122.3191,47.1847],[-122.3211,47.1861],[-122.3234,47.1866],[-122.3299,47.1862],[-122.3325,47.1877],[-122.3378,47.1929],[-122.3444,47.1952],[-122.3488,47.1999],[-122.3596,47.2087],[-122.3645,47.214],[-122.3693,47.2178],[-122.3793,47.2226],[-122.3815,47.2263],[-122.3818,47.2295],[-122.3867,47.2316],[-122.3892,47.2309],[-122.3916,47.2292],[-122.3926,47.2298],[-122.3953,47.2369],[-122.3976,47.2393],[-122.4083,47.243],[-122.4127,47.2432],[-122.424,47.242],[-122.4264,47.2421],[-122.43,47.2436],[-122.4299,47.25],[-122.4313,47.2559],[-122.436,47.2617],[-122.4107,47.2857],[-122.3989,47.2783],[-122.3918,47.2768],[-122.3824,47.2738],[-122.3815,47.2741],[-122.3596,47.2609],[-122.3577,47.2621],[-122.3577,47.2632],[-122.3546,47.261],[-122.3516,47.2576],[-122.3488,47.2539],[-122.3477,47.2514],[-122.3435,47.2478],[-122.3366,47.2432],[-122.3356,47.2431],[-122.3334,47.2446],[-122.3327,47.2461],[-122.3329,47.2542]]]}},{"type":"Feature","properties":{"zone":"case1"},"geometry":{"type":"Polygon","coordinates":[[[-122.0347,46.4548],[-122.0465,46.4606],[-122.0565,46.4626],[-122.0684,46.462],[-122.0745,46.465],[-122.0819,46.4661],[-122.0866,46.468],[-122.087,46.4652],[-122.0883,46.4639],[-122.0979,46.4618],[-122.1047,46.4631],[-122.1082,46.4623],[-122.1149,46.4628],[-122.1328,46.4574],[-122.1403,46.4561],[-122.1513,46.4571],[-122.155,46.4564],[-122.164,46.4606],[-122.175,46.4634],[-122.1784,46.4653],[-122.1806,46.4672],[-122.1826,46.4701],[-122.1827,46.4714],[-122.1818,46.473],[-122.1831,46.4752],[-122.187,46.4753],[-122.1931,46.4748],[-122.1968,46.4725],[-122.2018,46.471],[-122.2108,46.4693],[-122.2111,46.4685],[-122.2183,46.4653],[-122.2277,46.4654],[-122.2313,46.4633],[-122.2383,46.4616],[-122.2421,46.4593],[-122.2509,46.4581],[-122.2557,46.4581],[-122.2603,46.4566],[-122.2667,46.4578],[-122.2686,46.4573],[-122.2723,46.4579],[-122.2754,46.4591],[-122.2762,46.4605],[-122.2777,46.4613],[-122.2818,46.461],[-122.2873,46.4635],[-122.2905,46.4639],[-122.2941,46.4653],[-122.2962,46.4664],[-122.2996,46.4705],[-122.3022,46.4715],[-122.3046,46.4713],[-122.3066,46.4734],[-122.3118,46.4747],[-122.3168,46.4746],[-122.3184,46.4756],[-122.3213,46.476],[-122.3236,46.4782],[-122.3278,46.4792],[-122.3305,46.4817],[-122.3401,46.4854],[-122.3455,46.491],[-122.3497,46.4971],[-122.3565,46.5028],[-122.3561,46.5036],[-122.3574,46.5057],[-122.3655,46.5109],[-122.3681,46.5113],[-122.37,46.5104],[-122.3719,46.5107],[-122.3757,46.5099],[-122.3777,46.5084],[-122.3782,46.5071],[-122.3814,46.5059],[-122.3817,46.5047],[-122.3907,46.5046],[-122.3927,46.503],[-122.3938,46.5035],[-122.3925,46.5039],[-122.3925,46.5045],[-122.3941,46.5066],[-122.3955,46.5071],[-122.396,46.5101],[-122.3981,46.5128],[-122.4012,46.5134],[-122.4064,46.5156],[-122.4087,46.5168],[-122.4091,46.5182],[-122.4096,46.5177],[-122.4093,46.5169],[-122.4106,46.5161],[-122.413,46.5171],[-122.4135,46.5179],[-122.417,46.5162],[-122.4219,46.5165],[-122.4221,46.5176],[-122.4208,46.5178],[-122.4191,46.5191],[-122.42,46.5207],[-122.4214,46.5214],[-122.4205,46.5232],[-122.4208,46.5248],[-122.4194,46.5253],[-122.4223,46.5283],[-122.423,46.5309],[-122.4266,46.5325],[-122.4244,46.5346],[-122.4257,46.5369],[-122.4137,46.5348],[-122.4119,46.5356],[-122.4087,46.5359],[-122.4082,46.5349],[-122.4068,46.5346],[-122.4038,46.5325],[-122.4026,46.5325],[-122.4003,46.5308],[-122.3975,46.53],[-122.3949,46.5303],[-122.3912,46.5271],[-122.3879,46.5265],[-122.3851,46.5273],[-122.3822,46.5301],[-122.3833,46.5277],[-122.3822,46.5253],[-122.3808,46.5243],[-122.3799,46.525],[-122.3783,46.5278],[-122.3738,46.5309],[-122.3741,46.5329],[-122.3725,46.5315],[-122.37,46.5312],[-122.3708,46.5321],[-122.3709,46.5334],[-122.3691,46.5365],[-122.3682,46.5369],[-122.3688,46.536],[-122.3688,46.5326],[-122.3648,46.5335],[-122.3638,46.5343],[-122.3642,46.5331],[-122.3671,46.5318],[-122.3668,46.5313],[-122.3673,46.531],[-122.3664,46.5302],[-122.3622,46.5291],[-122.3604,46.5257],[-122.3578,46.5243],[-122.3592,46.5241],[-122.3596,46.523],[-122.3582,46.5226],[-122.357,46.5206],[-122.3536,46.5201],[-122.3409,46.5114],[-122.3345,46.5055],[-122.3326,46.5016],[-122.3312,46.5015],[-122.3269,46.504],[-122.3273,46.5033],[-122.3266,46.5024],[-122.3239,46.5012],[-122.3242,46.5006],[-122.3254,46.501],[-122.3257,46.5004],[-122.3235,46.4991],[-122.3228,46.4991],[-122.3227,46.5001],[-122.3168,46.4972],[-122.3146,46.498],[-122.3155,46.4958],[-122.3133,46.4947],[-122.3111,46.4924],[-122.3076,46.4925],[-122.3075,46.4942],[-122.3055,46.4929],[-122.305,46.4918],[-122.3037,46.4913],[-122.3011,46.4922],[-122.3008,46.4914],[-122.2965,46.49],[-122.2952,46.489],[-122.2917,46.4887],[-122.2892,46.4873],[-122.2885,46.4878],[-122.2881,46.4905],[-122.2862,46.4908],[-122.2858,46.492],[-122.2844,46.493],[-122.285,46.4907],[-122.2868,46.4895],[-122.286,46.4877],[-122.2845,46.4875],[-122.283,46.4863],[-122.2818,46.4872],[-122.2802,46.4859],[-122.2789,46.4862],[-122.2768,46.4849],[-122.2779,46.4832],[-122.2758,46.4817],[-122.2697,46.4817],[-122.2666,46.4811],[-122.2652,46.4799],[-122.2633,46.4798],[-122.2628,46.4767],[-122.2565,46.4739],[-122.2553,46.4738],[-122.2495,46.4749],[-122.2473,46.4766],[-122.2455,46.4771],[-122.2447,46.4766],[-122.2428,46.4768],[-122.242,46.4773],[-122.2414,46.4786],[-122.2419,46.4789],[-122.2409,46.4788],[-122.241,46.4778],[-122.2393,46.4782],[-122.2381,46.4794],[-122.238,46.4809],[-122.2363,46.4808],[-122.2354,46.4825],[-122.2347,46.4825],[-122.2343,46.4818],[-122.2331,46.4825],[-122.2327,46.4831],[-122.2331,46.4837],[-122.2322,46.4845],[-122.2325,46.4852],[-122.2317,46.4856],[-122.2319,46.4868],[-122.23,46.4855],[-122.2275,46.4851],[-122.2263,46.4864],[-122.2266,46.4874],[-122.2257,46.4887],[-122.2195,46.4917],[-122.2151,46.4925],[-122.2124,46.4965],[-122.2097,46.4968],[-122.2093,46.4977],[-122.2076,46.4971],[-122.2053,46.4976],[-122.2085,46.4955],[-122.2072,46.4922],[-122.2086,46.4894],[-122.2077,46.4883],[-122.2067,46.4883],[-122.204,46.4913],[-122.2006,46.4926],[-122.1996,46.4941],[-122.1955,46.4973],[-122.1945,46.4993],[-122.1886,46.504],[-122.187,46.5037],[-122.1856,46.5023],[-122.1855,46.5012],[-122.1864,46.4998],[-122.1851,46.4998],[-122.1847,46.5004],[-122.1859,46.4995],[-122.1831,46.4994],[-122.1801,46.4975],[-122.1784,46.4972],[-122.1796,46.5004],[-122.179,46.5006],[-122.1774,46.4987],[-122.1775,46.4974],[-122.1759,46.4969],[-122.1758,46.4963],[-122.1748,46.4963],[-122.1778,46.4962],[-122.1786,46.497],[-122.1781,46.4946],[-122.1802,46.4912],[-122.1838,46.4888],[-122.183,46.4886],[-122.1841,46.4871],[-122.1837,46.4857],[-122.1737,46.4809],[-122.1686,46.481],[-122.1638,46.4777],[-122.16,46.4762],[-122.1436,46.4772],[-122.1305,46.4792],[-122.128,46.4802],[-122.1264,46.4815],[-122.125,46.4858],[-122.124,46.4866],[-122.1205,46.4874],[-122.1127,46.4879],[-122.107,46.484],[-122.1048,46.4845],[-122.1037,46.4863],[-122.0977,46.4884],[-122.0828,46.4974],[-122.0805,46.4981],[-122.0784,46.4978],[-122.0777,46.4943],[-122.0754,46.493],[-122.0657,46.4923],[-122.0609,46.4928],[-122.0598,46.4939],[-122.061,46.499],[-122.0605,46.5015],[-122.0557,46.5089],[-122.0506,46.5136],[-122.0484,46.5148],[-122.0451,46.5162],[-122.041,46.5168],[-122.0339,46.5221],[-122.0247,46.5263],[-122.0235,46.5279],[-122.0235,46.5291],[-122.0249,46.5337],[-122.023,46.5343],[-122.0198,46.5333],[-122.012,46.5332],[-121.9966,46.5353],[-121.9923,46.5313],[-121.989,46.5309],[-121.9823,46.5331],[-121.9816,46.5343],[-121.982,46.5353],[-121.9811,46.5362],[-121.9789,46.5365],[-121.9669,46.5351],[-121.9615,46.5357],[-121.9427,46.5357],[-121.9364,46.5377],[-121.9261,46.5375],[-121.9219,46.5389],[-121.911,46.5404],[-121.9041,46.5421],[-121.8914,46.5423],[-121.888,46.5416],[-121.8829,46.5427],[-121.8733,46.5414],[-121.8566,46.5368],[-121.8455,46.5356],[-121.8377,46.5336],[-121.8328,46.5332],[-121.8161,46.5375],[-121.8095,46.5386],[-121.8002,46.5376],[-121.7949,46.539],[-121.7889,46.5397],[-121.7803,46.5423],[-121.7766,46.5441],[-121.7696,46.5505],[-121.77,46.5515],[-121.7684,46.5548],[-121.7592,46.5541],[-121.7507,46.5559],[-121.7465,46.5575],[-121.7449,46.5594],[-121.7448,46.5609],[-121.7458,46.5621],[-121.7414,46.5633],[-121.733,46.5678],[-121.7283,46.5716],[-121.7274,46.5747],[-121.7259,46.5752],[-121.7246,46.5737],[-121.7242,46.5716],[-121.7219,46.5707],[-121.7134,46.5734],[-121.7087,46.5756],[-121.7073,46.578],[-121.7082,46.5821],[-121.7132,46.5863],[-121.7142,46.5884],[-121.713,46.5915],[-121.7098,46.5954],[-121.706,46.5985],[-121.7036,46.6024],[-121.7038,46.6052],[-121.7025,46.608],[-121.7032,46.6113],[-121.7017,46.6141],[-121.7002,46.6212],[-121.6991,46.6231],[-121.699,46.6252],[-121.7011,46.6281],[-121.693,46.6269],[-121.6885,46.6275],[-121.6867,46.6284],[-121.6827,46.6307],[-121.6765,46.6361],[-121.6754,46.6375],[-121.675,46.6416],[-121.6715,46.6403],[-121.666,46.6411],[-121.6516,46.6471],[-121.6445,46.6512],[-121.6408,46.654],[-121.6337,46.6571],[-121.6275,46.6611],[-121.6235,46.6646],[-121.6218,46.6695],[-121.6256,46.6759],[-121.6269,46.6859],[-121.6263,46.6888],[-121.6267,46.6923],[-121.625,46.6968],[-121.6234,46.7048],[-121.6239,46.7097],[-121.63,46.7193],[-121.6274,46.7291],[-121.6293,46.7316],[-121.6319,46.733],[-121.633,46.7349],[-121.6328,46.737],[-121.6343,46.7392],[-121.6412,46.7453],[-121.6449,46.7509],[-121.6465,46.7522],[-121.6525,46.7542],[-121.6634,46.7549],[-121.6653,46.756],[-121.6639,46.7566],[-121.6634,46.7577],[-121.673,46.76],[-121.6761,46.7598],[-121.6803,46.7566],[-121.6819,46.7575],[-121.6826,46.76],[-121.6852,46.7634],[-121.6896,46.7649],[-121.6912,46.765],[-121.6923,46.7642],[-121.6945,46.765],[-121.6977,46.7678],[-121.7053,46.7701],[-121.7068,46.7715],[-121.705,46.7754],[-121.7055,46.7789],[-121.7044,46.7855],[-121.7047,46.7874],[-121.7069,46.7905],[-121.7097,46.7924],[-121.7111,46.7964],[-121.7146,46.8012],[-121.7215,46.8139],[-121.7357,46.8271],[-121.7403,46.8377],[-121.7456,46.8426],[-121.7459,46.8454],[-121.7452,46.847],[-121.7332,46.8479],[-121.7202,46.8476],[-121.7126,46.8469],[-121.7072,46.8454],[-121.7034,46.8427],[-121.7012,46.8396],[-121.6969,46.8303],[-121.6942,46.8264],[-121.6875,46.8205],[-121.683,46.818],[-121.6767,46.8157],[-121.6725,46.8154],[-121.658,46.812],[-121.6491,46.8073],[-121.6447,46.8035],[-121.6433,46.7945],[-121.642,46.7907],[-121.6341,46.7897],[-121.6258,46.785],[-121.6229,46.7849],[-121.619,46.7861],[-121.6196,46.7718],[-121.6208,46.7676],[-121.621,46.7619],[-121.6188,46.7555],[-121.6178,46.7481],[-121.6131,46.7389],[-121.6147,46.7366],[-121.6152,46.731],[-121.613,46.7211],[-121.6079,46.7103],[-121.6076,46.7006],[-121.6096,46.6964],[-121.6096,46.694],[-121.6092,46.6902],[-121.6065,46.6828],[-121.6042,46.679],[-121.6005,46.6758],[-121.5904,46.6783],[-121.5891,46.6794],[-121.5892,46.6845],[-121.587,46.6871],[-121.5867,46.6894],[-121.5855,46.6921],[-121.5851,46.6971],[-121.5838,46.6978],[-121.5799,46.698],[-121.5763,46.6951],[-121.5755,46.693],[-121.5763,46.6883],[-121.5754,46.6867],[-121.5701,46.6842],[-121.5682,46.6844],[-121.566,46.687],[-121.5652,46.6857],[-121.5662,46.6826],[-121.5699,46.6758],[-121.5753,46.6714],[-121.5756,46.6699],[-121.5781,46.6657],[-121.5852,46.6586],[-121.5883,46.658],[-121.5907,46.6534],[-121.5925,46.6519],[-121.6004,46.6477],[-121.6039,46.6423],[-121.6055,46.6427],[-121.6178,46.6399],[-121.6216,46.6374],[-121.6228,46.6359],[-121.6232,46.6349],[-121.6221,46.632],[-121.6264,46.6306],[-121.627,46.6283],[-121.6357,46.6268],[-121.6478,46.6207],[-121.6487,46.6182],[-121.6482,46.6152],[-121.6486,46.6106],[-121.6516,46.6057],[-121.6526,46.6006],[-121.6539,46.5993],[-121.6555,46.5988],[-121.6565,46.5963],[-121.6581,46.5951],[-121.6608,46.5906],[-121.6753,46.58],[-121.6816,46.5776],[-121.6869,46.5745],[-121.6904,46.5734],[-121.6896,46.5714],[-121.6801,46.5685],[-121.6812,46.5676],[-121.6944,46.5673],[-121.6966,46.566],[-121.6965,46.563],[-121.7037,46.5619],[-121.7071,46.5601],[-121.7088,46.5602],[-121.7156,46.5576],[-121.7265,46.55],[-121.7368,46.5475],[-121.7448,46.5441],[-121.746,46.5426],[-121.7529,46.5394],[-121.7602,46.5343],[-121.7642,46.5335],[-121.7702,46.5267],[-121.7791,46.5238],[-121.7812,46.5219],[-121.7831,46.5212],[-121.7884,46.5209],[-121.7903,46.52],[-121.8001,46.5126],[-121.818,46.5165],[-121.8249,46.5121],[-121.8273,46.5113],[-121.8325,46.5106],[-121.8413,46.5106],[-121.8429,46.5112],[-121.8432,46.5127],[-121.8545,46.5133],[-121.8696,46.5168],[-121.8711,46.5168],[-121.8723,46.5146],[-121.8769,46.5147],[-121.8804,46.5165],[-121.8865,46.5157],[-121.8887,46.516],[-121.8895,46.5172],[-121.8832,46.5205],[-121.8861,46.5211],[-121.8937,46.5214],[-121.9016,46.5182],[-121.9064,46.5181],[-121.9193,46.5197],[-121.9247,46.5212],[-121.9361,46.5212],[-121.9377,46.521],[-121.9332,46.5183],[-121.9312,46.5162],[-121.9326,46.515],[-121.9321,46.5127],[-121.9279,46.5114],[-121.928,46.51],[-121.9273,46.5087],[-121.9275,46.5061],[-121.93,46.5067],[-121.9445,46.5053],[-121.9484,46.5044],[-121.9545,46.5046],[-121.9635,46.4999],[-121.9892,46.4928],[-122.005,46.4931],[-122.0134,46.4946],[-122.0161,46.493],[-122.0241,46.4922],[-122.0328,46.49],[-122.0456,46.4882],[-122.0496,46.4883],[-122.052,46.4867],[-122.0542,46.484],[-122.0571,46.4826],[-122.0628,46.4817],[-122.0653,46.4806],[-122.066,46.4797],[-122.0658,46.4775],[-122.0635,46.4757],[-122.0553,46.4719],[-122.0459,46.4693],[-122.0441,46.4683],[-122.037,46.459],[-122.0352,46.4577],[-122.0318,46.4572],[-122.0347,46.4548]],[[-122.1446,46.4626],[-122.1359,46.463],[-122.1254,46.4664],[-122.1324,46.4669],[-122.1484,46.4655],[-122.1558,46.4654],[-122.1521,46.463],[-122.1446,46.4626]],[[-122.1079,46.4686],[-122.1017,46.4692],[-122.0995,46.4716],[-122.0998,46.4729],[-122.1012,46.4737],[-122.1041,46.474],[-122.1078,46.4729],[-122.1092,46.4718],[-122.1101,46.4689],[-122.1079,46.4686]],[[-121.646,46.76],[-121.6434,46.76],[-121.6408,46.7625],[-121.6406,46.7641],[-121.6418,46.7662],[-121.6561,46.7786],[-121.6611,46.7796],[-121.6624,46.7807],[-121.6615,46.7818],[-121.6559,46.7827],[-121.6541,46.7853],[-121.6537,46.7893],[-121.6564,46.7933],[-121.6651,46.7996],[-121.672,46.7998],[-121.6805,46.8026],[-121.6844,46.8032],[-121.6946,46.8118],[-121.7038,46.8211],[-121.7066,46.8222],[-121.7085,46.821],[-121.7087,46.8168],[-121.7054,46.807],[-121.7015,46.802],[-121.6981,46.799],[-121.6955,46.7949],[-121.6949,46.7898],[-121.6958,46.7825],[-121.6946,46.7778],[-121.6918,46.774],[-121.6829,46.7698],[-121.6745,46.7678],[-121.6564,46.7611],[-121.646,46.76]],[[-121.6279,46.7692],[-121.6265,46.7699],[-121.6254,46.7727],[-121.6278,46.7776],[-121.6319,46.781],[-121.6336,46.7817],[-121.6371,46.7816],[-121.6371,46.7789],[-121.6318,46.7737],[-121.6295,46.7701],[-121.6279,46.7692]]]}},{"type":"Feature","properties":{"zone":"case1"},"geometry":{"type":"Polygon","coordinates":[[[-121.8119,46.7057],[-121.8217,46.7104],[-121.8302,46.7171],[-121.8368,46.7208],[-121.8475,46.7221],[-121.8508,46.7218],[-121.8577,46.7198],[-121.8593,46.7188],[-121.8574,46.7128],[-121.8584,46.7116],[-121.8604,46.7115],[-121.8706,46.713],[-121.8722,46.7142],[-121.8748,46.7184],[-121.876,46.7192],[-121.8815,46.7217],[-121.8907,46.7244],[-121.8959,46.7272],[-121.8972,46.7267],[-121.8957,46.7234],[-121.8913,46.7194],[-121.8954,46.718],[-121.8981,46.7177],[-121.9117,46.7205],[-121.9183,46.7209],[-121.92,46.7204],[-121.9325,46.7256],[-121.947,46.7278],[-121.9659,46.7278],[-121.9723,46.7285],[-121.9792,46.7274],[-121.9916,46.7284],[-121.9979,46.7276],[-122.0017,46.7268],[-122.0037,46.7257],[-122.0038,46.7235],[-122.0028,46.7218],[-122.0005,46.7203],[-122,46.7191],[-122.0086,46.7205],[-122.0183,46.7208],[-122.0289,46.7252],[-122.0368,46.7265],[-122.0482,46.7256],[-122.0547,46.728],[-122.0612,46.7322],[-122.0662,46.7359],[-122.0668,46.7379],[-122.0705,46.7411],[-122.0741,46.7465],[-122.0765,46.7483],[-122.0799,46.749],[-122.0868,46.7479],[-122.0896,46.7463],[-122.0902,46.7452],[-122.096,46.7445],[-122.1002,46.7451],[-122.1047,46.7446],[-122.1075,46.7425],[-122.1097,46.7419],[-122.1222,46.7468],[-122.1298,46.7487],[-122.1315,46.7484],[-122.1326,46.7467],[-122.1329,46.7446],[-122.1347,46.7422],[-122.1404,46.7386],[-122.1429,46.7338],[-122.145,46.7331],[-122.1463,46.734],[-122.1457,46.7349],[-122.1465,46.7377],[-122.1434,46.7465],[-122.1439,46.7487],[-122.1462,46.7497],[-122.1589,46.7516],[-122.1648,46.7516],[-122.1713,46.7507],[-122.1745,46.7497],[-122.1851,46.7429],[-122.197,46.7395],[-122.2041,46.736],[-122.2063,46.7359],[-122.2067,46.7394],[-122.2038,46.7459],[-122.1987,46.7525],[-122.201,46.7552],[-122.2093,46.7596],[-122.2112,46.76],[-122.2155,46.7626],[-122.2159,46.7635],[-122.2275,46.7662],[-122.2294,46.7679],[-122.2333,46.7693],[-122.2387,46.7734],[-122.2437,46.7753],[-122.2455,46.7742],[-122.249,46.7703],[-122.2528,46.7709],[-122.2599,46.7672],[-122.262,46.7646],[-122.2588,46.7623],[-122.2579,46.7609],[-122.2587,46.7605],[-122.2615,46.7628],[-122.264,46.7634],[-122.2652,46.763],[-122.2658,46.7639],[-122.2696,46.7646],[-122.2696,46.7659],[-122.2756,46.7695],[-122.2784,46.7699],[-122.2794,46.7693],[-122.2839,46.7702],[-122.285,46.7711],[-122.285,46.772],[-122.2859,46.7722],[-122.2861,46.7731],[-122.2886,46.7741],[-122.2897,46.7737],[-122.2894,46.7747],[-122.2913,46.7755],[-122.292,46.7773],[-122.2936,46.7776],[-122.2951,46.7771],[-122.2999,46.7781],[-122.2996,46.7787],[-122.301,46.7806],[-122.3042,46.7818],[-122.3029,46.7821],[-122.3036,46.7845],[-122.3033,46.7863],[-122.306,46.7869],[-122.3091,46.7891],[-122.3104,46.789],[-122.3104,46.7906],[-122.3122,46.7921],[-122.3137,46.791],[-122.3122,46.7901],[-122.3097,46.7837],[-122.3112,46.7807],[-122.3139,46.7796],[-122.3138,46.7789],[-122.3154,46.7773],[-122.3151,46.7765],[-122.3168,46.774],[-122.3179,46.7704],[-122.3178,46.7682],[-122.3193,46.7659],[-122.3174,46.7648],[-122.3168,46.7634],[-122.314,46.7612],[-122.317,46.763],[-122.3184,46.7647],[-122.3205,46.7654],[-122.32,46.7672],[-122.3215,46.7685],[-122.3214,46.7698],[-122.3233,46.7711],[-122.3222,46.7722],[-122.324,46.7728],[-122.3207,46.7742],[-122.3202,46.775],[-122.3176,46.7758],[-122.3172,46.7765],[-122.3182,46.7784],[-122.3167,46.7788],[-122.3159,46.7805],[-122.3131,46.782],[-122.3131,46.7855],[-122.314,46.787],[-122.3153,46.7874],[-122.3143,46.7887],[-122.3164,46.7893],[-122.3175,46.7904],[-122.3166,46.7924],[-122.3177,46.7937],[-122.3169,46.7948],[-122.3147,46.7954],[-122.3151,46.7959],[-122.3145,46.7967],[-122.3182,46.7962],[-122.3189,46.7951],[-122.3223,46.7937],[-122.3181,46.7974],[-122.3142,46.7988],[-122.3138,46.7995],[-122.3146,46.8002],[-122.3142,46.8008],[-122.3145,46.8028],[-122.3126,46.8027],[-122.3111,46.8034],[-122.3112,46.8017],[-122.3104,46.801],[-122.3026,46.8094],[-122.3025,46.8112],[-122.3034,46.8133],[-122.3042,46.8189],[-122.303,46.8266],[-122.3039,46.8289],[-122.3058,46.8295],[-122.31,46.8296],[-122.3171,46.8281],[-122.3242,46.8297],[-122.3258,46.8309],[-122.3266,46.833],[-122.3254,46.8356],[-122.3292,46.8393],[-122.3294,46.8406],[-122.3306,46.8408],[-122.332,46.8406],[-122.3347,46.8381],[-122.3366,46.8373],[-122.3387,46.8374],[-122.3449,46.8361],[-122.3495,46.8368],[-122.3555,46.8386],[-122.3607,46.8415],[-122.37,46.8417],[-122.3726,46.8413],[-122.378,46.8392],[-122.3915,46.8412],[-122.4069,46.8401],[-122.4115,46.8403],[-122.4322,46.8428],[-122.441,46.845],[-122.4504,46.8504],[-122.4595,46.8573],[-122.4606,46.8569],[-122.4633,46.8481],[-122.4764,46.8467],[-122.4751,46.8487],[-122.4698,46.8518],[-122.4732,46.8541],[-122.4742,46.8566],[-122.4756,46.8581],[-122.4971,46.8564],[-122.5013,46.8569],[-122.5018,46.858],[-122.5014,46.8589],[-122.4994,46.8608],[-122.4977,46.8604],[-122.4954,46.8584],[-122.4927,46.8582],[-122.4928,46.8592],[-122.4968,46.8619],[-122.5005,46.8627],[-122.5028,46.8641],[-122.4952,46.8755],[-122.4947,46.8791],[-122.4945,46.8877],[-122.4973,46.8947],[-122.4991,46.8975],[-122.5013,46.9051],[-122.5022,46.906],[-122.5132,46.9095],[-122.5245,46.9096],[-122.5293,46.9112],[-122.5376,46.9157],[-122.5477,46.9237],[-122.5573,46.9269],[-122.5607,46.9288],[-122.5688,46.9384],[-122.5727,46.9451],[-122.5748,46.9533],[-122.5757,46.9549],[-122.5804,46.9592],[-122.5802,46.9603],[-122.5776,46.9632],[-122.5777,46.9659],[-122.5786,46.9663],[-122.5861,46.9655],[-122.5885,46.9675],[-122.5886,46.9705],[-122.5876,46.9714],[-122.5843,46.9728],[-122.579,46.9722],[-122.578,46.9735],[-122.5788,46.9748],[-122.5909,46.9731],[-122.5965,46.9705],[-122.6044,46.9702],[-122.6078,46.9683],[-122.6072,46.9677],[-122.6058,46.9678],[-122.6059,46.9672],[-122.6115,46.9665],[-122.6157,46.9679],[-122.6177,46.9673],[-122.6253,46.9687],[-122.629,46.9702],[-122.6348,46.9746],[-122.6416,46.9769],[-122.642,46.9779],[-122.641,46.9802],[-122.6416,46.9809],[-122.6413,46.9817],[-122.6376,46.9835],[-122.6375,46.9843],[-122.6379,46.9856],[-122.6401,46.9858],[-122.6414,46.9872],[-122.6407,46.9885],[-122.6361,46.9912],[-122.6364,46.9922],[-122.6387,46.9926],[-122.6414,46.994],[-122.6472,46.9949],[-122.6511,46.9996],[-122.6567,47.0015],[-122.6616,47.0045],[-122.6658,47.0109],[-122.6718,47.0142],[-122.6752,47.0205],[-122.6799,47.0271],[-122.6827,47.0337],[-122.6843,47.0355],[-122.6903,47.038],[-122.6936,47.0456],[-122.6964,47.0484],[-122.7054,47.0494],[-122.709,47.0518],[-122.7187,47.0425],[-122.7202,47.0399],[-122.7207,47.0349],[-122.7222,47.0334],[-122.7224,47.0317],[-122.7188,47.0296],[-122.7188,47.0285],[-122.7245,47.0284],[-122.7304,47.0321],[-122.7306,47.0372],[-122.7285,47.0429],[-122.7277,47.0476],[-122.7268,47.0485],[-122.7267,47.0518],[-122.7285,47.0549],[-122.7285,47.0579],[-122.7305,47.0623],[-122.7322,47.0737],[-122.7322,47.0824],[-122.7309,47.0868],[-122.729,47.089],[-122.7269,47.0995],[-122.7262,47.1007],[-122.6767,47.1041],[-122.6772,47.1025],[-122.6824,47.0998],[-122.6876,47.0961],[-122.6903,47.0916],[-122.6917,47.0858],[-122.6928,47.0852],[-122.6939,47.083],[-122.6932,47.082],[-122.686,47.0838],[-122.6847,47.0816],[-122.6837,47.0812],[-122.687,47.0787],[-122.6945,47.075],[-122.696,47.0727],[-122.6964,47.07],[-122.6954,47.063],[-122.6922,47.0605],[-122.6922,47.0584],[-122.6839,47.0545],[-122.6798,47.0476],[-122.676,47.0447],[-122.6686,47.0333],[-122.6645,47.0284],[-122.6628,47.0245],[-122.6631,47.0225],[-122.6579,47.0181],[-122.6494,47.0091],[-122.6404,47.0033],[-122.6299,47.0002],[-122.6275,46.9976],[-122.6251,46.997],[-122.6249,46.9963],[-122.6278,46.9955],[-122.6261,46.9908],[-122.6274,46.9866],[-122.6249,46.9846],[-122.6239,46.9818],[-122.6255,46.9794],[-122.6293,46.9777],[-122.63,46.9768],[-122.6295,46.976],[-122.6233,46.9731],[-122.6185,46.974],[-122.6126,46.9724],[-122.6124,46.9772],[-122.6059,46.9802],[-122.6021,46.9797],[-122.5972,46.9766],[-122.5905,46.977],[-122.5901,46.9781],[-122.5913,46.9812],[-122.5913,46.9837],[-122.5894,46.986],[-122.5869,46.9863],[-122.5848,46.9851],[-122.5828,46.9818],[-122.5842,46.9771],[-122.5833,46.9768],[-122.579,46.9788],[-122.5744,46.977],[-122.5718,46.9741],[-122.571,46.9709],[-122.5717,46.9688],[-122.571,46.9679],[-122.5676,46.9673],[-122.5625,46.9677],[-122.5587,46.9701],[-122.5599,46.9728],[-122.5621,46.9752],[-122.562,46.9772],[-122.5613,46.9777],[-122.5574,46.9731],[-122.557,46.9714],[-122.5546,46.9682],[-122.554,46.9653],[-122.5525,46.9638],[-122.553,46.9621],[-122.5521,46.9581],[-122.5496,46.9544],[-122.5489,46.9503],[-122.5494,46.9468],[-122.5489,46.9434],[-122.5472,46.9371],[-122.5457,46.9349],[-122.5366,46.9314],[-122.5178,46.921],[-122.5064,46.916],[-122.4966,46.91],[-122.4914,46.904],[-122.4907,46.9009],[-122.4894,46.8995],[-122.4917,46.8976],[-122.4887,46.8908],[-122.4864,46.8887],[-122.4823,46.8877],[-122.4767,46.8897],[-122.4737,46.8957],[-122.4703,46.898],[-122.4676,46.8985],[-122.4643,46.8971],[-122.4625,46.8938],[-122.4629,46.8917],[-122.4672,46.8889],[-122.4664,46.8855],[-122.4699,46.8831],[-122.4693,46.88],[-122.4677,46.8795],[-122.4654,46.8805],[-122.4634,46.8802],[-122.4636,46.8766],[-122.4668,46.8747],[-122.4705,46.8737],[-122.4714,46.8727],[-122.4711,46.8705],[-122.4623,46.867],[-122.4558,46.8657],[-122.4495,46.8681],[-122.442,46.8725],[-122.4366,46.8737],[-122.4366,46.8731],[-122.4387,46.8723],[-122.4425,46.8695],[-122.4438,46.8678],[-122.4508,46.863],[-122.4363,46.8531],[-122.4268,46.8518],[-122.419,46.8499],[-122.416,46.8475],[-122.4024,46.8456],[-122.3876,46.8467],[-122.3756,46.8453],[-122.3687,46.8468],[-122.3591,46.8522],[-122.3504,46.8609],[-122.3494,46.8676],[-122.3477,46.872],[-122.3426,46.8761],[-122.3379,46.878],[-122.3313,46.8793],[-122.321,46.8769],[-122.3031,46.874],[-122.2971,46.8736],[-122.2918,46.8745],[-122.2827,46.8786],[-122.2786,46.8819],[-122.2782,46.8827],[-122.2789,46.8866],[-122.2785,46.8885],[-122.2827,46.8918],[-122.2839,46.8944],[-122.2826,46.8995],[-122.2795,46.9035],[-122.2768,46.9053],[-122.2636,46.9101],[-122.2579,46.9133],[-122.2569,46.9143],[-122.2563,46.9175],[-122.2611,46.9249],[-122.2614,46.9264],[-122.2609,46.927],[-122.2594,46.9266],[-122.2584,46.9255],[-122.2573,46.9255],[-122.2578,46.924],[-122.2535,46.9174],[-122.2538,46.9153],[-122.2553,46.9129],[-122.2573,46.9107],[-122.2643,46.9069],[-122.2746,46.9034],[-122.278,46.9004],[-122.2787,46.899],[-122.2791,46.8962],[-122.2783,46.8939],[-122.2735,46.8875],[-122.2728,46.8838],[-122.2743,46.8796],[-122.277,46.8764],[-122.2817,46.873],[-122.2862,46.871],[-122.2962,46.8695],[-122.3033,46.8693],[-122.3061,46.8698],[-122.3104,46.8721],[-122.3187,46.874],[-122.3241,46.874],[-122.3309,46.8724],[-122.3363,46.8697],[-122.3406,46.8633],[-122.3462,46.8574],[-122.353,46.8534],[-122.3612,46.846],[-122.3613,46.8452],[-122.3578,46.8442],[-122.355,46.8411],[-122.3519,46.8398],[-122.3436,46.8387],[-122.3407,46.839],[-122.3377,46.8401],[-122.3336,46.8442],[-122.3309,46.8506],[-122.3283,46.8523],[-122.3283,46.8566],[-122.3271,46.8578],[-122.3263,46.8583],[-122.3227,46.8563],[-122.3214,46.857],[-122.3199,46.8594],[-122.3188,46.8593],[-122.3167,46.8578],[-122.3155,46.8578],[-122.3155,46.8593],[-122.3145,46.8588],[-122.3144,46.8572],[-122.3152,46.8564],[-122.3186,46.8569],[-122.323,46.8541],[-122.3254,46.8538],[-122.325,46.8516],[-122.3278,46.85],[-122.3277,46.8482],[-122.3285,46.8464],[-122.3282,46.8456],[-122.3239,46.8452],[-122.3224,46.8443],[-122.3218,46.8428],[-122.3223,46.8407],[-122.3248,46.8378],[-122.3231,46.8349],[-122.3237,46.8333],[-122.3233,46.8313],[-122.3171,46.8294],[-122.312,46.8308],[-122.3062,46.8306],[-122.3027,46.8296],[-122.3016,46.8282],[-122.3011,46.8266],[-122.3016,46.822],[-122.3013,46.8145],[-122.2996,46.808],[-122.3048,46.805],[-122.3092,46.7984],[-122.302,46.7995],[-122.3,46.799],[-122.3007,46.798],[-122.2986,46.7975],[-122.2964,46.7988],[-122.2915,46.7991],[-122.2914,46.7985],[-122.2897,46.7982],[-122.2807,46.8004],[-122.2803,46.7987],[-122.2758,46.7998],[-122.2739,46.7995],[-122.2732,46.7989],[-122.275,46.7983],[-122.2751,46.7968],[-122.2735,46.7958],[-122.2713,46.7961],[-122.2731,46.7955],[-122.2732,46.7946],[-122.2742,46.7946],[-122.2735,46.7942],[-122.2739,46.794],[-122.2761,46.7941],[-122.275,46.7935],[-122.2755,46.7926],[-122.2745,46.7925],[-122.2748,46.7917],[-122.273,46.791],[-122.2727,46.7895],[-122.2746,46.7907],[-122.2807,46.7918],[-122.2841,46.7911],[-122.2832,46.7896],[-122.2868,46.791],[-122.2886,46.7927],[-122.2904,46.7928],[-122.291,46.7938],[-122.2926,46.7944],[-122.2943,46.7933],[-122.2939,46.7923],[-122.2951,46.7922],[-122.2967,46.793],[-122.2975,46.791],[-122.299,46.7895],[-122.2957,46.7897],[-122.2944,46.789],[-122.2931,46.7873],[-122.2934,46.7849],[-122.2916,46.7838],[-122.2917,46.7827],[-122.291,46.7819],[-122.2873,46.7799],[-122.286,46.78],[-122.2834,46.7786],[-122.2766,46.7772],[-122.2737,46.7776],[-122.2723,46.7791],[-122.2675,46.7757],[-122.2673,46.772],[-122.2668,46.7715],[-122.2643,46.7725],[-122.2618,46.772],[-122.2592,46.7734],[-122.2513,46.7737],[-122.2513,46.775],[-122.2488,46.7777],[-122.2485,46.78],[-122.2468,46.7812],[-122.2422,46.7819],[-122.2383,46.7815],[-122.2308,46.7797],[-122.2223,46.7753],[-122.2215,46.7739],[-122.2189,46.7739],[-122.2123,46.7712],[-122.1972,46.7676],[-122.1877,46.7664],[-122.1656,46.7676],[-122.156,46.766],[-122.1474,46.7678],[-122.1446,46.7674],[-122.1318,46.7614],[-122.125,46.76],[-122.1187,46.7601],[-122.1031,46.7644],[-122.0915,46.7641],[-122.0854,46.7648],[-122.0772,46.7637],[-122.0635,46.7645],[-122.0511,46.7639],[-122.044,46.7623],[-122.0361,46.7617],[-122.0341,46.7607],[-122.0271,46.7602],[-122.0175,46.7604],[-122.0128,46.7611],[-121.9982,46.76],[-121.994,46.7607],[-121.9877,46.7606],[-121.9854,46.7614],[-121.9794,46.7613],[-121.9776,46.7619],[-121.9702,46.7603],[-121.9711,46.7579],[-121.9696,46.7569],[-121.968,46.7569],[-121.9648,46.7588],[-121.962,46.7592],[-121.9487,46.7572],[-121.9413,46.7553],[-121.938,46.7555],[-121.9348,46.7548],[-121.9274,46.751],[-121.9201,46.7488],[-121.9188,46.7477],[-121.9192,46.7461],[-121.9185,46.7443],[-121.9167,46.7431],[-121.9113,46.7416],[-121.9091,46.7416],[-121.903,46.7442],[-121.8847,46.7556],[-121.8809,46.7597],[-121.8793,46.7667],[-121.8813,46.7714],[-121.8856,46.7781],[-121.8901,46.7882],[-121.8973,46.7954],[-121.8995,46.7987],[-121.9088,46.8044],[-121.9111,46.8103],[-121.918,46.8188],[-121.9197,46.8225],[-121.9214,46.8215],[-121.9248,46.8176],[-121.9265,46.8177],[-121.9247,46.8249],[-121.9246,46.8275],[-121.9279,46.8351],[-121.9291,46.8401],[-121.9407,46.8483],[-121.9518,46.8581],[-121.965,46.8652],[-121.9667,46.8655],[-121.968,46.8643],[-121.9679,46.8617],[-121.9686,46.8604],[-121.971,46.8617],[-121.9764,46.8659],[-121.9809,46.8682],[-121.9937,46.872],[-121.9987,46.8759],[-122.0046,46.8793],[-122.0162,46.8805],[-122.0218,46.883],[-122.0237,46.8826],[-122.0251,46.8808],[-122.0273,46.8752],[-122.03,46.8764],[-122.0305,46.8804],[-122.0317,46.8821],[-122.0434,46.8933],[-122.0486,46.8999],[-122.0551,46.9051],[-122.0571,46.9093],[-122.061,46.9117],[-122.0685,46.913],[-122.0737,46.9148],[-122.0765,46.9173],[-122.0736,46.9179],[-122.07,46.9177],[-122.0677,46.9188],[-122.0635,46.9186],[-122.0619,46.9191],[-122.0611,46.9205],[-122.0623,46.9238],[-122.0619,46.9258],[-122.0633,46.9291],[-122.0663,46.9332],[-122.0711,46.9422],[-122.0751,46.9483],[-122.0819,46.95],[-122.0958,46.9566],[-122.1005,46.9591],[-122.1075,46.9645],[-122.1144,46.9653],[-122.1241,46.968],[-122.1268,46.9694],[-122.1356,46.9723],[-122.149,46.9752],[-122.1662,46.9878],[-122.1769,46.9903],[-122.1807,46.9948],[-122.1831,46.9956],[-122.1865,46.9905],[-122.1909,46.9877],[-122.2003,46.9851],[-122.2031,46.9836],[-122.2079,46.9827],[-122.2145,46.9791],[-122.2151,46.979],[-122.2151,46.9797],[-122.2167,46.979],[-122.2165,46.9796],[-122.2172,46.9796],[-122.22,46.9759],[-122.2222,46.9767],[-122.2223,46.9777],[-122.2208,46.9782],[-122.2215,46.979],[-122.2224,46.9788],[-122.224,46.9773],[-122.2238,46.9762],[-122.2262,46.9748],[-122.2266,46.9737],[-122.2241,46.971],[-122.2247,46.9668],[-122.2299,46.9635],[-122.2319,46.961],[-122.2326,46.959],[-122.2358,46.9592],[-122.2353,46.9622],[-122.2319,46.969],[-122.2305,46.9742],[-122.2308,46.9752],[-122.2286,46.9778],[-122.2276,46.9816],[-122.2267,46.9829],[-122.225,46.9827],[-122.2223,46.9839],[-122.2208,46.9837],[-122.2141,46.9863],[-122.2109,46.9866],[-122.1982,46.9923],[-122.1999,46.9945],[-122.2095,47.0012],[-122.2114,47.0034],[-122.2157,47.0116],[-122.2178,47.0143],[-122.2183,47.0183],[-122.2176,47.0205],[-122.2106,47.03],[-122.2083,47.0342],[-122.2082,47.0364],[-122.2105,47.0381],[-122.2142,47.0387],[-122.215,47.0397],[-122.2146,47.0409],[-122.2092,47.0465],[-122.2067,47.0525],[-122.2055,47.0539],[-122.2028,47.0558],[-122.2005,47.0584],[-122.1962,47.0609],[-122.1957,47.0619],[-122.1982,47.0669],[-122.2042,47.0727],[-122.2074,47.074],[-122.217,47.0754],[-122.2201,47.0792],[-122.2232,47.0798],[-122.2282,47.0822],[-122.231,47.0851],[-122.2412,47.1038],[-122.2419,47.1097],[-122.2432,47.1144],[-122.2429,47.122],[-122.2434,47.1304],[-122.2451,47.1407],[-122.2415,47.1496],[-122.2379,47.1553],[-122.2352,47.1645],[-122.2347,47.17],[-122.2351,47.1747],[-122.2361,47.1765],[-122.2387,47.1784],[-122.2479,47.1808],[-122.2513,47.1822],[-122.2546,47.1792],[-122.2563,47.1786],[-122.259,47.1786],[-122.2619,47.1801],[-122.2628,47.18],[-122.2649,47.1787],[-122.2715,47.1769],[-122.2849,47.1793],[-122.2894,47.179],[-122.2936,47.176],[-122.3019,47.1758],[-122.3074,47.1777],[-122.3134,47.1757],[-122.3158,47.1734],[-122.3177,47.1733],[-122.3181,47.1743],[-122.3176,47.1778],[-122.3191,47.1818],[-122.3212,47.1847],[-122.3226,47.1853],[-122.328,47.1844],[-122.3314,47.1848],[-122.3346,47.1871],[-122.339,47.1918],[-122.348,47.1949],[-122.3482,47.1972],[-122.3509,47.1999],[-122.3561,47.2032],[-122.3589,47.2034],[-122.3595,47.2058],[-122.3617,47.2092],[-122.3665,47.2134],[-122.3699,47.2156],[-122.3714,47.2151],[-122.375,47.2184],[-122.3824,47.2218],[-122.3833,47.2243],[-122.3831,47.2264],[-122.3847,47.2293],[-122.387,47.2303],[-122.3883,47.2296],[-122.3901,47.2272],[-122.3927,47.226],[-122.3934,47.2293],[-122.3966,47.236],[-122.3987,47.2386],[-122.4003,47.2391],[-122.4032,47.2388],[-122.4103,47.2415],[-122.4172,47.2408],[-122.4184,47.2404],[-122.4199,47.2387],[-122.4219,47.2383],[-122.4265,47.241],[-122.4299,47.2412],[-122.4326,47.2427],[-122.435,47.2537],[-122.4388,47.2608],[-122.4093,47.2894],[-122.4067,47.2868],[-122.4047,47.2838],[-122.4013,47.2823],[-122.3916,47.2818],[-122.389,47.2812],[-122.3864,47.2779],[-122.3781,47.2753],[-122.3778,47.2743],[-122.3726,47.2709],[-122.3701,47.2706],[-122.3664,47.2686],[-122.3648,47.2685],[-122.3638,47.2665],[-122.3602,47.2656],[-122.3522,47.2569],[-122.3461,47.2485],[-122.3392,47.2444],[-122.3368,47.2448],[-122.3345,47.2485],[-122.3346,47.2501],[-122.3371,47.2549],[-122.3375,47.26],[-122.3348,47.2669],[-122.3283,47.2726],[-122.3237,47.2721],[-122.3218,47.2732],[-122.3213,47.2749],[-122.3192,47.2726],[-122.3244,47.2695],[-122.3265,47.2662],[-122.3269,47.2614],[-122.3262,47.2586],[-122.323,47.2556],[-122.3187,47.2562],[-122.3179,47.2557],[-122.3208,47.2542],[-122.3214,47.2532],[-122.3212,47.2496],[-122.323,47.2446],[-122.3248,47.2417],[-122.3234,47.2368],[-122.3199,47.2345],[-122.3213,47.233],[-122.3195,47.2301],[-122.3092,47.2224],[-122.3022,47.2209],[-122.298,47.219],[-122.2964,47.2163],[-122.2804,47.2096],[-122.2717,47.2069],[-122.2649,47.2056],[-122.2543,47.2043],[-122.2477,47.2043],[-122.2476,47.2053],[-122.2511,47.2097],[-122.2523,47.2169],[-122.2551,47.2245],[-122.2536,47.2347],[-122.257,47.2453],[-122.2594,47.2494],[-122.2635,47.2524],[-122.2642,47.2538],[-122.261,47.2532],[-122.2594,47.2541],[-122.2621,47.2573],[-122.2628,47.2601],[-122.2629,47.2649],[-122.2636,47.2654],[-122.2618,47.2672],[-122.2613,47.2721],[-122.2593,47.2791],[-122.2582,47.2914],[-122.2554,47.2943],[-122.2537,47.2951],[-122.2478,47.2961],[-122.2386,47.2962],[-122.2276,47.2954],[-122.2128,47.2912],[-122.2092,47.2892],[-122.1999,47.2817],[-122.1959,47.2812],[-122.19,47.2839],[-122.1809,47.2843],[-122.1715,47.2805],[-122.1684,47.2785],[-122.1627,47.2768],[-122.1555,47.2724],[-122.1506,47.268],[-122.1498,47.2662],[-122.143,47.2586],[-122.1353,47.2544],[-122.132,47.2543],[-122.1261,47.2497],[-122.1209,47.2438],[-122.1193,47.2377],[-122.1159,47.2347],[-122.1088,47.2309],[-122.106,47.2284],[-122.1046,47.2253],[-122.1051,47.2214],[-122.1045,47.2186],[-122.1021,47.2149],[-122.1011,47.2122],[-122.1011,47.2095],[-122.0995,47.2066],[-122.0922,47.2017],[-122.0874,47.197],[-122.0835,47.195],[-122.078,47.191],[-122.0732,47.1894],[-122.063,47.189],[-122.0585,47.1855],[-122.0477,47.1817],[-122.0461,47.1808],[-122.0453,47.1789],[-122.046,47.1768],[-122.0456,47.1746],[-122.0429,47.1728],[-122.0405,47.1726],[-122.0314,47.1753],[-122.0224,47.1765],[-122.0155,47.1759],[-122.0112,47.1764],[-121.9999,47.1736],[-121.9922,47.1727],[-121.9899,47.171],[-121.9874,47.1677],[-121.9822,47.1652],[-121.9701,47.1632],[-121.9629,47.1628],[-121.9615,47.1623],[-121.9572,47.1579],[-121.9519,47.1557],[-121.9488,47.1536],[-121.9475,47.1472],[-121.9463,47.1448],[-121.9444,47.1428],[-121.9344,47.1397],[-121.933,47.1407],[-121.9325,47.1432],[-121.9299,47.1447],[-121.9322,47.1452],[-121.9332,47.1461],[-121.9315,47.1499],[-121.9259,47.1513],[-121.9246,47.1508],[-121.9231,47.1515],[-121.9213,47.1511],[-121.9179,47.1518],[-121.9127,47.1512],[-121.9099,47.1519],[-121.9087,47.1529],[-121.9099,47.1554],[-121.9066,47.1571],[-121.8909,47.1589],[-121.8867,47.1574],[-121.8787,47.1563],[-121.8773,47.1567],[-121.8749,47.1587],[-121.8761,47.1555],[-121.8746,47.154],[-121.8703,47.1536],[-121.8635,47.155],[-121.857,47.1531],[-121.8484,47.1529],[-121.8445,47.1543],[-121.8412,47.1573],[-121.8253,47.1603],[-121.823,47.1615],[-121.8178,47.1663],[-121.807,47.1699],[-121.8005,47.1746],[-121.7933,47.1781],[-121.7899,47.1789],[-121.7788,47.1767],[-121.7747,47.1765],[-121.7689,47.1723],[-121.7494,47.166],[-121.7455,47.1658],[-121.7415,47.1666],[-121.7371,47.1701],[-121.7361,47.1693],[-121.7339,47.169],[-121.733,47.1681],[-121.7357,47.1665],[-121.7363,47.1654],[-121.7347,47.1649],[-121.7322,47.1625],[-121.721,47.1574],[-121.7136,47.1554],[-121.7039,47.1552],[-121.6928,47.154],[-121.6831,47.1549],[-121.67,47.1584],[-121.6653,47.1619],[-121.6613,47.1661],[-121.6553,47.1601],[-121.6483,47.16],[-121.6438,47.1589],[-121.6387,47.1588],[-121.6262,47.1522],[-121.6239,47.1516],[-121.6106,47.1454],[-121.6025,47.1407],[-121.5961,47.1355],[-121.5937,47.1324],[-121.5925,47.1299],[-121.5917,47.1245],[-121.5894,47.122],[-121.5865,47.1205],[-121.5812,47.1198],[-121.58,47.1191],[-121.587,47.1177],[-121.5917,47.1192],[-121.5986,47.128],[-121.6041,47.1321],[-121.6048,47.1307],[-121.6048,47.1264],[-121.6035,47.1223],[-121.5956,47.114],[-121.5906,47.1053],[-121.5838,47.097],[-121.5819,47.0935],[-121.5802,47.0886],[-121.5772,47.0829],[-121.5778,47.0804],[-121.5773,47.0768],[-121.5751,47.0714],[-121.5737,47.0695],[-121.572,47.0685],[-121.5726,47.0617],[-121.5699,47.0527],[-121.5672,47.0496],[-121.5637,47.0436],[-121.5518,47.0314],[-121.5489,47.0297],[-121.5425,47.028],[-121.5342,47.024],[-121.5302,47.0233],[-121.5279,47.0178],[-121.5212,47.0093],[-121.5203,47.0019],[-121.5192,47.0004],[-121.515,46.9994],[-121.5144,46.9983],[-121.5155,46.9974],[-121.5144,46.9947],[-121.518,46.9955],[-121.5214,46.9941],[-121.5287,46.9864],[-121.5319,46.9802],[-121.533,46.9741],[-121.5326,46.973],[-121.53,46.968],[-121.5242,46.961],[-121.5224,46.958],[-121.5223,46.9564],[-121.5258,46.9495],[-121.5269,46.9484],[-121.5288,46.9484],[-121.5298,46.9474],[-121.53,46.945],[-121.5282,46.9353],[-121.5292,46.9302],[-121.5326,46.9235],[-121.5369,46.9127],[-121.5457,46.8987],[-121.5454,46.8912],[-121.5461,46.8876],[-121.5478,46.8874],[-121.5507,46.8907],[-121.5534,46.8959],[-121.5549,46.8969],[-121.57,46.8935],[-121.5823,46.8883],[-121.5905,46.8889],[-121.6049,46.8871],[-121.6104,46.8854],[-121.6127,46.8867],[-121.6131,46.8885],[-121.6123,46.8911],[-121.6133,46.8926],[-121.624,46.8967],[-121.6315,46.898],[-121.6436,46.8967],[-121.656,46.8927],[-121.6649,46.8913],[-121.6666,46.8883],[-121.6683,46.8808],[-121.6717,46.8749],[-121.6786,46.8696],[-121.6873,46.8642],[-121.6915,46.862],[-121.6958,46.8608],[-121.7103,46.8517],[-121.7157,46.85],[-121.7284,46.8495],[-121.7411,46.8503],[-121.751,46.8497],[-121.7553,46.8503],[-121.7573,46.8513],[-121.7586,46.8529],[-121.7587,46.8559],[-121.7576,46.863],[-121.7508,46.8694],[-121.7493,46.8788],[-121.7428,46.8872],[-121.7392,46.8966],[-121.7391,46.9028],[-121.7405,46.9051],[-121.7409,46.9072],[-121.7459,46.9124],[-121.7469,46.9155],[-121.7307,46.931],[-121.725,46.9341],[-121.7203,46.9377],[-121.7129,46.9404],[-121.7096,46.9423],[-121.7068,46.9452],[-121.7061,46.947],[-121.7087,46.9538],[-121.7099,46.9553],[-121.715,46.9582],[-121.7162,46.9598],[-121.719,46.9669],[-121.7192,46.9697],[-121.7212,46.9734],[-121.7211,46.9745],[-121.7177,46.9794],[-121.7105,46.9857],[-121.7122,46.9902],[-121.7118,46.9934],[-121.709,47.0031],[-121.7106,47.006],[-121.7061,47.0099],[-121.7059,47.0115],[-121.7076,47.0179],[-121.7081,47.0268],[-121.7065,47.034],[-121.7064,47.04],[-121.7082,47.046],[-121.7005,47.0511],[-121.6974,47.0569],[-121.6917,47.0654],[-121.6909,47.0723],[-121.6877,47.0757],[-121.6872,47.0787],[-121.6832,47.0805],[-121.6819,47.0827],[-121.6746,47.0868],[-121.6717,47.09],[-121.6678,47.091],[-121.6659,47.0945],[-121.6566,47.1013],[-121.655,47.102],[-121.6534,47.1014],[-121.6513,47.1017],[-121.6363,47.107],[-121.6304,47.1142],[-121.6297,47.1166],[-121.6308,47.1226],[-121.6344,47.1307],[-121.6372,47.1343],[-121.6482,47.1413],[-121.6601,47.1411],[-121.6778,47.1443],[-121.6838,47.1462],[-121.6953,47.1465],[-121.6995,47.1451],[-121.702,47.1452],[-121.723,47.1516],[-121.7329,47.1558],[-121.7389,47.1593],[-121.7438,47.1594],[-121.7472,47.1611],[-121.7537,47.1615],[-121.7573,47.1628],[-121.7695,47.1624],[-121.7767,47.1641],[-121.7838,47.165],[-121.7908,47.1647],[-121.7979,47.1614],[-121.8031,47.1564],[-121.8075,47.1494],[-121.8114,47.1463],[-121.8125,47.1445],[-121.8126,47.1428],[-121.8067,47.1368],[-121.8048,47.1333],[-121.7992,47.1271],[-121.8,47.1261],[-121.8121,47.134],[-121.8214,47.1381],[-121.8269,47.1387],[-121.8324,47.1412],[-121.8429,47.1424],[-121.8472,47.1441],[-121.8499,47.1459],[-121.8531,47.1463],[-121.8545,47.1457],[-121.8541,47.1447],[-121.8567,47.1446],[-121.8611,47.146],[-121.8627,47.1448],[-121.8624,47.147],[-121.8637,47.1483],[-121.8639,47.1498],[-121.8658,47.1512],[-121.873,47.1489],[-121.8747,47.1491],[-121.8793,47.1515],[-121.8999,47.1531],[-121.9017,47.1519],[-121.9104,47.1489],[-121.924,47.1469],[-121.9243,47.1466],[-121.9228,47.1455],[-121.9234,47.1439],[-121.9289,47.1423],[-121.9295,47.1413],[-121.9283,47.1406],[-121.9323,47.1382],[-121.9351,47.1377],[-121.9431,47.1382],[-121.9466,47.1392],[-121.9503,47.1427],[-121.9513,47.1505],[-121.9518,47.1519],[-121.9534,47.1533],[-121.956,47.1544],[-121.9676,47.1554],[-121.9792,47.1622],[-121.9893,47.1623],[-121.9919,47.1635],[-121.9934,47.1657],[-121.9938,47.1687],[-121.9947,47.1698],[-122.0006,47.1691],[-122.0048,47.1703],[-122.0145,47.1716],[-122.0235,47.1714],[-122.0338,47.1686],[-122.038,47.1642],[-122.0399,47.1645],[-122.0432,47.1658],[-122.0487,47.1702],[-122.0548,47.1766],[-122.0593,47.1793],[-122.0644,47.1848],[-122.0812,47.1859],[-122.0867,47.1871],[-122.0969,47.1908],[-122.1073,47.1963],[-122.1122,47.1996],[-122.1141,47.2015],[-122.1154,47.2041],[-122.1155,47.2104],[-122.1147,47.2117],[-122.1156,47.2181],[-122.1141,47.2223],[-122.1145,47.2234],[-122.1167,47.2249],[-122.1216,47.2264],[-122.1258,47.2303],[-122.1316,47.2341],[-122.1348,47.2387],[-122.1347,47.2434],[-122.1365,47.2451],[-122.14,47.2468],[-122.1448,47.2518],[-122.1512,47.2552],[-122.1558,47.2614],[-122.1588,47.2642],[-122.1603,47.2678],[-122.1724,47.2713],[-122.1748,47.2729],[-122.1764,47.2763],[-122.1792,47.277],[-122.1866,47.277],[-122.1928,47.2759],[-122.1985,47.2757],[-122.2025,47.2739],[-122.2034,47.2717],[-122.2042,47.2714],[-122.2096,47.2739],[-122.213,47.274],[-122.2157,47.2727],[-122.2193,47.2683],[-122.2236,47.2642],[-122.2257,47.2608],[-122.2263,47.2592],[-122.2253,47.2537],[-122.2259,47.2491],[-122.2233,47.2426],[-122.2226,47.2378],[-122.223,47.2355],[-122.2227,47.2319],[-122.2242,47.2252],[-122.224,47.2206],[-122.2226,47.218],[-122.2174,47.2143],[-122.2083,47.2047],[-122.2035,47.2006],[-122.1992,47.1926],[-122.1999,47.1828],[-122.1948,47.1787],[-122.1937,47.1743],[-122.1938,47.1716],[-122.1954,47.1674],[-122.2003,47.1587],[-122.2018,47.1572],[-122.2034,47.1563],[-122.2125,47.1553],[-122.2161,47.1528],[-122.2163,47.1515],[-122.2152,47.1507],[-122.2091,47.149],[-122.217,47.1486],[-122.2225,47.1426],[-122.2229,47.1395],[-122.2225,47.1354],[-122.2209,47.1304],[-122.2192,47.129],[-122.2185,47.1273],[-122.2176,47.1202],[-122.2145,47.1142],[-122.2103,47.1098],[-122.1918,47.1008],[-122.1801,47.0902],[-122.1773,47.0894],[-122.1756,47.0895],[-122.1625,47.0963],[-122.1591,47.0972],[-122.158,47.0979],[-122.1586,47.1006],[-122.1572,47.1015],[-122.1535,47.1024],[-122.1508,47.1043],[-122.1522,47.1068],[-122.1434,47.1142],[-122.1412,47.1167],[-122.1356,47.1207],[-122.135,47.1223],[-122.1351,47.1241],[-122.1374,47.129],[-122.1371,47.1308],[-122.1354,47.1322],[-122.1221,47.1364],[-122.1057,47.1434],[-122.098,47.145],[-122.0937,47.1446],[-122.0863,47.14],[-122.082,47.1397],[-122.0776,47.1372],[-122.0732,47.1372],[-122.0645,47.1401],[-122.0599,47.1408],[-122.0585,47.1405],[-122.0599,47.1397],[-122.0599,47.1385],[-122.0574,47.1345],[-122.0576,47.1334],[-122.0623,47.1367],[-122.0665,47.1356],[-122.0703,47.1359],[-122.0681,47.1313],[-122.0691,47.1235],[-122.0688,47.1215],[-122.0636,47.121],[-122.0547,47.1226],[-122.0507,47.1219],[-122.0483,47.1195],[-122.0481,47.1154],[-122.0471,47.113],[-122.0438,47.1114],[-122.0405,47.1124],[-122.0395,47.1113],[-122.0399,47.1098],[-122.0387,47.1069],[-122.0413,47.1047],[-122.0414,47.1037],[-122.0397,47.1033],[-122.0376,47.1037],[-122.0282,47.1081],[-122.0271,47.1095],[-122.0264,47.1118],[-122.024,47.1139],[-122.0176,47.1154],[-122.0164,47.1146],[-122.0168,47.1132],[-122.0223,47.1096],[-122.0226,47.1079],[-122.0275,47.1031],[-122.0281,47.1017],[-122.0268,47.0995],[-122.0218,47.0968],[-122.0198,47.0944],[-122.0211,47.0938],[-122.0248,47.0952],[-122.0269,47.0949],[-122.0294,47.092],[-122.0313,47.0856],[-122.0352,47.082],[-122.0367,47.0797],[-122.037,47.0784],[-122.036,47.0758],[-122.0364,47.0683],[-122.0373,47.0657],[-122.0404,47.0615],[-122.0396,47.0584],[-122.0385,47.0573],[-122.0385,47.056],[-122.0402,47.0529],[-122.0406,47.0503],[-122.0384,47.0437],[-122.0343,47.0414],[-122.0309,47.03],[-122.0292,47.0273],[-122.0191,47.0182],[-121.9901,47.0098],[-121.9828,47.0054],[-121.9785,47.0038],[-121.9605,47.0017],[-121.9409,46.997],[-121.9335,46.996],[-121.9289,46.997],[-121.9182,47.0012],[-121.8967,47.003],[-121.891,47.0032],[-121.8739,47.0018],[-121.869,47.0023],[-121.8645,47.0012],[-121.849,47.0007],[-121.8378,46.9979],[-121.8338,46.9987],[-121.8302,47.0004],[-121.8241,47],[-121.8229,46.9988],[-121.8313,46.9975],[-121.8361,46.9942],[-121.834,46.9908],[-121.8282,46.9842],[-121.8128,46.9768],[-121.8084,46.9735],[-121.8071,46.9717],[-121.7912,46.9655],[-121.7876,46.9626],[-121.787,46.9575],[-121.7896,46.9515],[-121.7888,46.9485],[-121.7805,46.9417],[-121.7717,46.9366],[-121.767,46.9317],[-121.7634,46.921],[-121.7647,46.9178],[-121.7685,46.9132],[-121.7693,46.909],[-121.7674,46.9045],[-121.7627,46.898],[-121.7537,46.8884],[-121.7508,46.8826],[-121.7513,46.8798],[-121.7533,46.8751],[-121.7574,46.8677],[-121.7598,46.8654],[-121.7618,46.8613],[-121.7658,46.8588],[-121.7684,46.8591],[-121.7716,46.8604],[-121.776,46.8635],[-121.7778,46.8663],[-121.7788,46.875],[-121.7801,46.8786],[-121.7837,46.8823],[-121.7923,46.889],[-121.7966,46.8952],[-121.7979,46.9031],[-121.7945,46.9097],[-121.7859,46.9186],[-121.7849,46.9221],[-121.7853,46.9238],[-121.7891,46.9274],[-121.7909,46.9309],[-121.7915,46.9376],[-121.7934,46.9429],[-121.7967,46.9451],[-121.8022,46.9455],[-121.8068,46.9447],[-121.8075,46.9459],[-121.8036,46.9491],[-121.8008,46.9528],[-121.7994,46.9562],[-121.7993,46.9575],[-121.8002,46.9591],[-121.8021,46.9601],[-121.8129,46.9619],[-121.8233,46.9678],[-121.8329,46.9679],[-121.8337,46.9692],[-121.8337,46.9714],[-121.835,46.9737],[-121.8431,46.9816],[-121.8475,46.9834],[-121.8499,46.9837],[-121.8538,46.983],[-121.8547,46.9838],[-121.8545,46.9854],[-121.8552,46.9866],[-121.8587,46.9891],[-121.8655,46.9902],[-121.8741,46.9893],[-121.8906,46.9927],[-121.8994,46.9928],[-121.9127,46.9917],[-121.9254,46.9882],[-121.9416,46.985],[-121.9422,46.984],[-121.9417,46.9827],[-121.9539,46.983],[-121.9668,46.9862],[-122.0091,47],[-122.0092,47.0029],[-122.014,47.007],[-122.0205,47.0101],[-122.0244,47.0101],[-122.0293,47.0119],[-122.0353,47.0158],[-122.0382,47.0193],[-122.0415,47.0304],[-122.0398,47.0359],[-122.0433,47.0409],[-122.0484,47.0513],[-122.0486,47.0527],[-122.0474,47.0561],[-122.049,47.0589],[-122.049,47.067],[-122.0505,47.0685],[-122.0536,47.0693],[-122.0578,47.0713],[-122.0609,47.0746],[-122.0687,47.0718],[-122.0719,47.0719],[-122.0791,47.0748],[-122.083,47.077],[-122.0859,47.0804],[-122.0887,47.0816],[-122.0975,47.0827],[-122.112,47.0919],[-122.1205,47.0934],[-122.1305,47.0906],[-122.1352,47.0907],[-122.1396,47.0924],[-122.1548,47.0894],[-122.1576,47.0885],[-122.1592,47.0871],[-122.1605,47.0843],[-122.1597,47.0792],[-122.1618,47.0789],[-122.1669,47.0795],[-122.1757,47.0762],[-122.182,47.0724],[-122.1814,47.0643],[-122.1912,47.0553],[-122.1934,47.0517],[-122.1956,47.0461],[-122.2005,47.0436],[-122.202,47.0416],[-122.1977,47.0401],[-122.1922,47.0369],[-122.1942,47.0363],[-122.1948,47.0351],[-122.1945,47.0336],[-122.1968,47.0276],[-122.1984,47.0215],[-122.1976,47.0189],[-122.1963,47.0171],[-122.1921,47.015],[-122.1822,47.0128],[-122.1803,47.0104],[-122.1831,47.0094],[-122.1836,47.0081],[-122.183,47.0064],[-122.1818,47.005],[-122.1783,47.0037],[-122.1757,47.0014],[-122.1705,46.9964],[-122.1702,46.995],[-122.169,46.9936],[-122.165,46.994],[-122.161,46.993],[-122.1614,46.9919],[-122.1608,46.9901],[-122.1591,46.9875],[-122.1555,46.9858],[-122.1461,46.9792],[-122.1438,46.9783],[-122.1353,46.9757],[-122.1312,46.975],[-122.1253,46.9721],[-122.1083,46.9691],[-122.1017,46.9668],[-122.0797,46.9614],[-122.0659,46.9561],[-122.0597,46.9524],[-122.0562,46.9479],[-122.0524,46.9449],[-122.0526,46.9414],[-122.052,46.9398],[-122.0482,46.9362],[-122.0408,46.9313],[-122.029,46.926],[-122.0201,46.9156],[-122.0186,46.9149],[-122.0089,46.9132],[-122.0064,46.9138],[-121.9973,46.9205],[-121.9936,46.9225],[-121.9794,46.9272],[-121.9705,46.9275],[-121.9563,46.9259],[-121.9436,46.9271],[-121.9353,46.9266],[-121.9241,46.9238],[-121.9154,46.9198],[-121.9103,46.9187],[-121.8972,46.918],[-121.8816,46.9191],[-121.8769,46.9189],[-121.8613,46.9161],[-121.858,46.915],[-121.8448,46.9146],[-121.842,46.9138],[-121.8407,46.9119],[-121.837,46.9102],[-121.8329,46.9051],[-121.8244,46.8981],[-121.8141,46.8934],[-121.7967,46.887],[-121.7872,46.8817],[-121.7834,46.8784],[-121.7824,46.8767],[-121.7819,46.8716],[-121.7836,46.8673],[-121.7861,46.8659],[-121.8067,46.8636],[-121.8136,46.8639],[-121.8228,46.8662],[-121.8329,46.8675],[-121.8424,46.8668],[-121.8475,46.8671],[-121.8549,46.8691],[-121.8746,46.8813],[-121.8773,46.8837],[-121.8872,46.8955],[-121.8972,46.9037],[-121.9028,46.906],[-121.9084,46.9071],[-121.9141,46.9074],[-121.9275,46.9122],[-121.938,46.9144],[-121.9575,46.9164],[-121.9662,46.9171],[-121.9741,46.9165],[-121.9888,46.9106],[-121.992,46.9098],[-121.9986,46.9068],[-122,46.906],[-122.001,46.9032],[-122.0007,46.902],[-121.9976,46.8993],[-121.9889,46.8967],[-121.987,46.8954],[-121.9879,46.8943],[-121.9874,46.8932],[-121.9797,46.8849],[-121.9782,46.8813],[-121.9763,46.8806],[-121.9708,46.8803],[-121.9666,46.8787],[-121.9593,46.8747],[-121.9517,46.8733],[-121.9433,46.8682],[-121.9239,46.8644],[-121.9094,46.859],[-121.8999,46.8538],[-121.8971,46.8494],[-121.8797,46.848],[-121.8689,46.8481],[-121.858,46.8473],[-121.8532,46.8477],[-121.8463,46.8492],[-121.8361,46.853],[-121.8263,46.8556],[-121.8009,46.8565],[-121.7976,46.8574],[-121.7879,46.8626],[-121.7828,46.8631],[-121.7789,46.862],[-121.7778,46.8608],[-121.7771,46.8524],[-121.7774,46.85],[-121.7795,46.8464],[-121.782,46.8445],[-121.7917,46.84],[-121.7998,46.8313],[-121.801,46.8279],[-121.7994,46.825],[-121.7987,46.822],[-121.7992,46.8193],[-121.8006,46.818],[-121.814,46.8102],[-121.8284,46.8041],[-121.8357,46.803],[-121.8412,46.8012],[-121.8472,46.8009],[-121.859,46.7969],[-121.8692,46.7959],[-121.8721,46.7926],[-121.8756,46.7877],[-121.8756,46.7856],[-121.8749,46.7838],[-121.8702,46.7841],[-121.8685,46.7837],[-121.8669,46.7812],[-121.8666,46.7784],[-121.8683,46.7743],[-121.8698,46.7597],[-121.8708,46.757],[-121.8764,46.7532],[-121.8798,46.7499],[-121.8825,46.745],[-121.8827,46.7433],[-121.8796,46.7411],[-121.874,46.74],[-121.8669,46.7399],[-121.8603,46.7419],[-121.8551,46.7471],[-121.8512,46.7543],[-121.8486,46.7574],[-121.8394,46.7661],[-121.8315,46.7705],[-121.8178,46.7804],[-121.8117,46.7832],[-121.8094,46.7852],[-121.8062,46.7886],[-121.8038,46.7941],[-121.7982,46.797],[-121.7938,46.8012],[-121.7848,46.8194],[-121.7835,46.8285],[-121.7818,46.8306],[-121.7703,46.8404],[-121.7683,46.8443],[-121.7671,46.8455],[-121.7625,46.8468],[-121.7578,46.8461],[-121.7538,46.8441],[-121.7466,46.8379],[-121.7403,46.8292],[-121.7364,46.8213],[-121.7356,46.8184],[-121.7353,46.808],[-121.7359,46.8042],[-121.7368,46.8023],[-121.7394,46.7979],[-121.7432,46.7935],[-121.7433,46.7905],[-121.7468,46.7862],[-121.7577,46.7791],[-121.7792,46.7705],[-121.7806,46.7695],[-121.7796,46.7668],[-121.7909,46.7615],[-121.795,46.7586],[-121.796,46.7537],[-121.8007,46.7474],[-121.8038,46.7419],[-121.807,46.7382],[-121.811,46.7309],[-121.8156,46.7271],[-121.8169,46.7246],[-121.8167,46.7195],[-121.8097,46.7076],[-121.81,46.7062],[-121.8119,46.7057]],[[-121.838,46.7367],[-121.8356,46.7367],[-121.8324,46.7382],[-121.8274,46.742],[-121.8243,46.746],[-121.8209,46.7481],[-121.81,46.7606],[-121.8029,46.7635],[-121.7998,46.7655],[-121.79,46.7747],[-121.787,46.7781],[-121.7852,46.7817],[-121.7855,46.7858],[-121.7875,46.7867],[-121.7905,46.7858],[-121.794,46.7803],[-121.7969,46.7772],[-121.8024,46.7737],[-121.8034,46.7722],[-121.8026,46.7711],[-121.8034,46.7702],[-121.8158,46.7643],[-121.823,46.759],[-121.8273,46.7573],[-121.8308,46.7548],[-121.8364,46.7469],[-121.8415,46.7434],[-121.8436,46.7414],[-121.8445,46.7394],[-121.84,46.737],[-121.838,46.7367]],[[-121.8843,46.7976],[-121.8822,46.7977],[-121.8762,46.8017],[-121.8662,46.803],[-121.858,46.805],[-121.8509,46.8056],[-121.845,46.8075],[-121.8431,46.8086],[-121.8404,46.812],[-121.8393,46.8188],[-121.8404,46.8196],[-121.8485,46.8181],[-121.851,46.8161],[-121.8515,46.8148],[-121.8738,46.809],[-121.8883,46.8031],[-121.8945,46.8015],[-121.8957,46.7999],[-121.8946,46.7987],[-121.8843,46.7976]],[[-121.8229,46.8127],[-121.8194,46.8129],[-121.8162,46.8145],[-121.8149,46.8157],[-121.8131,46.8198],[-121.8142,46.8219],[-121.8191,46.8249],[-121.8226,46.8256],[-121.8245,46.8251],[-121.8253,46.8239],[-121.8256,46.8203],[-121.8291,46.8167],[-121.8287,46.8146],[-121.8271,46.8133],[-121.8229,46.8127]],[[-121.8924,46.8098],[-121.8794,46.8131],[-121.8674,46.8172],[-121.8422,46.8269],[-121.8286,46.8339],[-121.8208,46.8395],[-121.814,46.8428],[-121.8128,46.8444],[-121.8167,46.8445],[-121.8295,46.8427],[-121.8427,46.8438],[-121.8528,46.8433],[-121.8657,46.8417],[-121.878,46.8422],[-121.8902,46.8412],[-121.8941,46.8415],[-121.9032,46.8439],[-121.9163,46.8516],[-121.9213,46.8532],[-121.927,46.8562],[-121.9312,46.8576],[-121.9325,46.857],[-121.931,46.8543],[-121.9219,46.8463],[-121.9194,46.8428],[-121.9172,46.8376],[-121.9125,46.8355],[-121.912,46.8342],[-121.9136,46.8334],[-121.9128,46.827],[-121.9096,46.8188],[-121.9053,46.8146],[-121.902,46.8125],[-121.8963,46.8098],[-121.8924,46.8098]],[[-122.0259,46.9039],[-122.02,46.9047],[-122.02,46.9058],[-122.0266,46.9101],[-122.0464,46.9261],[-122.0469,46.9247],[-122.044,46.917],[-122.0391,46.9128],[-122.0336,46.9065],[-122.0303,46.9046],[-122.0259,46.9039]],[[-122.184,47.0012],[-122.1827,47.0019],[-122.1855,47.0026],[-122.1872,47.002],[-122.184,47.0012]],[[-121.7295,46.8715],[-121.7174,46.8742],[-121.7067,46.8753],[-121.6904,46.8833],[-121.6845,46.8875],[-121.6833,46.8891],[-121.6834,46.8907],[-121.6925,46.8936],[-121.6921,46.8946],[-121.6868,46.8971],[-121.6731,46.9004],[-121.6636,46.9014],[-121.6529,46.9012],[-121.6414,46.9042],[-121.6303,46.9053],[-121.6236,46.9044],[-121.6135,46.9005],[-121.5989,46.8999],[-121.5848,46.9014],[-121.5695,46.9052],[-121.5632,46.908],[-121.5568,46.9124],[-121.5496,46.9236],[-121.543,46.9317],[-121.5412,46.9351],[-121.5396,46.9391],[-121.5378,46.9466],[-121.5324,46.9559],[-121.533,46.9584],[-121.5355,46.963],[-121.5379,46.965],[-121.5398,46.9653],[-121.5402,46.9693],[-121.5432,46.9722],[-121.5443,46.9764],[-121.5427,46.9838],[-121.543,46.9849],[-121.5396,46.99],[-121.5355,47.0001],[-121.5376,47.0098],[-121.5384,47.0117],[-121.5409,47.0138],[-121.551,47.0204],[-121.5568,47.0224],[-121.5624,47.0297],[-121.5697,47.0373],[-121.5723,47.0415],[-121.5733,47.048],[-121.5756,47.0542],[-121.5786,47.0577],[-121.5814,47.0594],[-121.5816,47.0637],[-121.5835,47.0646],[-121.5984,47.0616],[-121.6,47.0619],[-121.6006,47.0635],[-121.5965,47.069],[-121.5948,47.074],[-121.5946,47.0781],[-121.5958,47.0805],[-121.5945,47.084],[-121.5943,47.0869],[-121.5956,47.0919],[-121.5965,47.0934],[-121.6025,47.098],[-121.6064,47.105],[-121.6102,47.1087],[-121.612,47.1091],[-121.6161,47.1084],[-121.6191,47.1044],[-121.6273,47.1029],[-121.6439,47.0955],[-121.6454,47.0947],[-121.6459,47.0932],[-121.6495,47.0929],[-121.6535,47.0943],[-121.6569,47.0936],[-121.6577,47.0926],[-121.6576,47.0901],[-121.6551,47.0877],[-121.6571,47.0863],[-121.6632,47.0849],[-121.667,47.0824],[-121.6725,47.0752],[-121.6781,47.0707],[-121.6804,47.0615],[-121.682,47.0588],[-121.683,47.0545],[-121.6831,47.0454],[-121.6822,47.0443],[-121.6855,47.0412],[-121.688,47.0359],[-121.6871,47.0272],[-121.691,47.0224],[-121.6911,47.019],[-121.6919,47.0174],[-121.6931,47.0157],[-121.6955,47.0141],[-121.6958,47.0128],[-121.6955,47.0112],[-121.6918,47.0059],[-121.6914,47.0044],[-121.6925,47.0036],[-121.6931,47.0018],[-121.6935,46.9974],[-121.6995,46.9908],[-121.7044,46.9772],[-121.7091,46.9702],[-121.709,46.9683],[-121.7076,46.9653],[-121.7005,46.9605],[-121.696,46.9558],[-121.6945,46.9519],[-121.6954,46.9454],[-121.6974,46.9411],[-121.7167,46.9266],[-121.7189,46.9234],[-121.7211,46.916],[-121.7204,46.9146],[-121.7183,46.9029],[-121.7178,46.8944],[-121.7183,46.8907],[-121.7225,46.885],[-121.7272,46.8819],[-121.73,46.8778],[-121.7317,46.8725],[-121.7295,46.8715]],[[-122.0562,47.0952],[-122.0488,47.1007],[-122.0482,47.1018],[-122.0487,47.1031],[-122.0518,47.1039],[-122.0547,47.1019],[-122.0582,47.0964],[-122.0579,47.0955],[-122.0562,47.0952]],[[-122.1326,47.1048],[-122.1178,47.1078],[-122.1032,47.1139],[-122.0867,47.124],[-122.0777,47.1276],[-122.0759,47.1299],[-122.076,47.1312],[-122.0775,47.1323],[-122.0857,47.1343],[-122.0924,47.1369],[-122.0975,47.134],[-122.1012,47.1331],[-122.1093,47.1326],[-122.1157,47.13],[-122.1211,47.1301],[-122.1291,47.1269],[-122.1302,47.1259],[-122.1279,47.1228],[-122.1273,47.1179],[-122.1321,47.1123],[-122.1368,47.1095],[-122.1381,47.1072],[-122.1371,47.1058],[-122.1326,47.1048]],[[-122.0897,47.1061],[-122.0821,47.1071],[-122.0802,47.1114],[-122.0839,47.113],[-122.0898,47.1103],[-122.0913,47.1093],[-122.0919,47.1078],[-122.0915,47.1067],[-122.0897,47.1061]],[[-121.8486,46.8875],[-121.8432,46.8886],[-121.8423,46.8897],[-121.8423,46.8912],[-121.8462,46.8976],[-121.8519,46.8998],[-121.8675,46.9088],[-121.876,46.9102],[-121.8796,46.9104],[-121.8834,46.9095],[-121.8837,46.9078],[-121.883,46.9063],[-121.8804,46.9033],[-121.8752,46.8996],[-121.8728,46.8968],[-121.8714,46.8936],[-121.8662,46.8894],[-121.8609,46.8878],[-121.8486,46.8875]]]}},{"type":"Feature","properties":{"zone":"postlahar"},"geometry":{"type":"Polygon","coordinates":[[[-122.3414,47.5738],[-122.3404,47.5713],[-122.3347,47.5644],[-122.329,47.5596],[-122.322,47.5554],[-122.302,47.537],[-122.2963,47.5325],[-122.2878,47.5177],[-122.2845,47.5153],[-122.2776,47.5133],[-122.277,47.5102],[-122.2776,47.5084],[-122.2852,47.5078],[-122.2872,47.507],[-122.2868,47.5059],[-122.2847,47.504],[-122.2822,47.5047],[-122.2803,47.5037],[-122.283,47.5026],[-122.283,47.5016],[-122.2812,47.501],[-122.2781,47.5015],[-122.2757,47.4992],[-122.2677,47.4945],[-122.262,47.4874],[-122.2564,47.4834],[-122.2498,47.4758],[-122.2461,47.4755],[-122.2409,47.4784],[-122.2351,47.4792],[-122.233,47.4788],[-122.2283,47.4763],[-122.2194,47.475],[-122.2192,47.4737],[-122.2182,47.4728],[-122.2116,47.471],[-122.2116,47.4705],[-122.2139,47.4693],[-122.2154,47.4664],[-122.2145,47.4614],[-122.213,47.4585],[-122.2112,47.4484],[-122.2126,47.446],[-122.2169,47.4436],[-122.2178,47.4408],[-122.2179,47.4367],[-122.217,47.4348],[-122.2199,47.4336],[-122.2205,47.4322],[-122.2205,47.4217],[-122.2193,47.4168],[-122.2166,47.4107],[-122.2177,47.4098],[-122.2175,47.4072],[-122.2196,47.4035],[-122.2184,47.3991],[-122.2183,47.3957],[-122.2193,47.3933],[-122.2215,47.3912],[-122.2217,47.3902],[-122.226,47.387],[-122.2249,47.3836],[-122.2274,47.3811],[-122.2283,47.3791],[-122.2275,47.3735],[-122.2249,47.3717],[-122.2207,47.37],[-122.2139,47.3651],[-122.2069,47.3549],[-122.2059,47.3472],[-122.2021,47.344],[-122.2035,47.3415],[-122.2035,47.3381],[-122.2026,47.3369],[-122.2054,47.3334],[-122.2059,47.3316],[-122.201,47.3247],[-122.2014,47.3216],[-122.203,47.3175],[-122.2024,47.3159],[-122.2028,47.314],[-122.196,47.3068],[-122.192,47.3062],[-122.1906,47.3052],[-122.191,47.3039],[-122.1946,47.3029],[-122.203,47.3036],[-122.2061,47.3031],[-122.2075,47.3023],[-122.2106,47.2985],[-122.21,47.2969],[-122.2063,47.2932],[-122.2034,47.2868],[-122.2036,47.2846],[-122.2092,47.2892],[-122.2128,47.2912],[-122.2276,47.2954],[-122.2386,47.2962],[-122.2478,47.2961],[-122.2537,47.2951],[-122.2569,47.2929],[-122.258,47.296],[-122.2579,47.2974],[-122.2509,47.3075],[-122.2487,47.3154],[-122.2505,47.3196],[-122.2528,47.3224],[-122.2531,47.3269],[-122.2512,47.3308],[-122.2488,47.333],[-122.2456,47.3376],[-122.248,47.3396],[-122.2597,47.346],[-122.2615,47.3512],[-122.2654,47.3574],[-122.266,47.3661],[-122.2668,47.3688],[-122.268,47.3711],[-122.2755,47.3799],[-122.2751,47.3887],[-122.277,47.3918],[-122.2742,47.3915],[-122.2742,47.3921],[-122.2749,47.3939],[-122.2776,47.3968],[-122.2784,47.3987],[-122.2776,47.4061],[-122.2801,47.4109],[-122.2807,47.4143],[-122.279,47.4181],[-122.269,47.4277],[-122.2632,47.4315],[-122.2598,47.4391],[-122.2596,47.4433],[-122.2618,47.4515],[-122.2597,47.4543],[-122.2593,47.4585],[-122.2577,47.4603],[-122.2496,47.462],[-122.2491,47.4624],[-122.2497,47.4637],[-122.2486,47.4652],[-122.2505,47.4671],[-122.2545,47.4742],[-122.2592,47.4784],[-122.2786,47.4903],[-122.2815,47.4968],[-122.2844,47.4981],[-122.293,47.499],[-122.2951,47.5002],[-122.2993,47.5088],[-122.3121,47.5178],[-122.3143,47.5229],[-122.3179,47.5243],[-122.3204,47.5231],[-122.3241,47.5238],[-122.3277,47.5235],[-122.3295,47.5243],[-122.3321,47.5292],[-122.3331,47.54],[-122.3416,47.5411],[-122.3428,47.5421],[-122.3444,47.5525],[-122.3499,47.5573],[-122.351,47.5633],[-122.3547,47.57],[-122.3578,47.5722],[-122.3644,47.5747],[-122.3663,47.5767],[-122.3696,47.5823],[-122.3723,47.5848],[-122.3411,47.5923],[-122.3416,47.5893],[-122.3414,47.5738]]]}},{"type":"Feature","properties":{"zone":"pyroclastic"},"geometry":{"type":"Polygon","coordinates":[[[-121.9434,46.8752],[-121.9316,46.8762],[-121.9242,46.8778],[-121.9191,46.8796],[-121.9147,46.883],[-121.9121,46.8867],[-121.9112,46.89],[-121.9115,46.8932],[-121.9154,46.9],[-121.9232,46.9072],[-121.937,46.9167],[-121.9394,46.9195],[-121.9401,46.9213],[-121.9397,46.9224],[-121.9374,46.9245],[-121.9319,46.9257],[-121.9236,46.926],[-121.8945,46.9233],[-121.8854,46.9251],[-121.8817,46.9266],[-121.8767,46.9299],[-121.8714,46.9315],[-121.8474,46.9304],[-121.8416,46.9329],[-121.8326,46.9412],[-121.8211,46.9459],[-121.8186,46.9475],[-121.8171,46.9497],[-121.8183,46.9515],[-121.8205,46.9526],[-121.8443,46.9569],[-121.8478,46.958],[-121.8499,46.9598],[-121.849,46.9616],[-121.8397,46.9661],[-121.8349,46.9717],[-121.8344,46.9729],[-121.8352,46.9753],[-121.8383,46.9791],[-121.8389,46.9809],[-121.839,46.9825],[-121.8372,46.9848],[-121.8312,46.9852],[-121.8215,46.9827],[-121.7725,46.9618],[-121.7662,46.96],[-121.7634,46.9598],[-121.7529,46.961],[-121.745,46.9638],[-121.731,46.9708],[-121.7156,46.9806],[-121.713,46.982],[-121.7102,46.9825],[-121.7085,46.9816],[-121.7075,46.9802],[-121.6993,46.9676],[-121.6915,46.9546],[-121.6862,46.9438],[-121.6829,46.9388],[-121.6781,46.9296],[-121.6755,46.926],[-121.6707,46.9221],[-121.664,46.9187],[-121.6532,46.9146],[-121.6345,46.9099],[-121.6048,46.9037],[-121.5882,46.8992],[-121.5855,46.8976],[-121.585,46.8965],[-121.5854,46.8954],[-121.5876,46.8922],[-121.601,46.8825],[-121.6045,46.8785],[-121.6058,46.8755],[-121.6055,46.8678],[-121.6069,46.8657],[-121.6111,46.8639],[-121.626,46.8603],[-121.6301,46.8578],[-121.6321,46.8546],[-121.63,46.8513],[-121.6286,46.8503],[-121.6135,46.8425],[-121.5915,46.828],[-121.5728,46.813],[-121.5693,46.8097],[-121.5676,46.8064],[-121.5698,46.8051],[-121.5738,46.8046],[-121.5871,46.8053],[-121.5953,46.8046],[-121.6075,46.802],[-121.6116,46.7996],[-121.6147,46.7939],[-121.615,46.7859],[-121.6163,46.7747],[-121.6207,46.7565],[-121.6254,46.7472],[-121.6283,46.7447],[-121.6315,46.7435],[-121.636,46.7428],[-121.6474,46.7435],[-121.6909,46.7535],[-121.7021,46.7554],[-121.7103,46.7558],[-121.7137,46.7553],[-121.7165,46.7522],[-121.7184,46.7426],[-121.7183,46.736],[-121.7155,46.7268],[-121.7153,46.7214],[-121.7165,46.719],[-121.7176,46.7191],[-121.7276,46.7279],[-121.7418,46.7382],[-121.759,46.7455],[-121.7649,46.747],[-121.7703,46.7473],[-121.7777,46.7452],[-121.7889,46.7362],[-121.8006,46.7294],[-121.8092,46.726],[-121.8325,46.7195],[-121.8693,46.7176],[-121.8775,46.7176],[-121.8875,46.7189],[-121.8918,46.7205],[-121.8966,46.7239],[-121.8999,46.7274],[-121.9003,46.729],[-121.901,46.7295],[-121.8997,46.7374],[-121.8964,46.7453],[-121.8855,46.76],[-121.8841,46.7635],[-121.8843,46.7674],[-121.8866,46.7732],[-121.8945,46.7856],[-121.9001,46.7922],[-121.9042,46.795],[-121.923,46.8044],[-121.9299,46.8097],[-121.932,46.8123],[-121.9331,46.8172],[-121.9326,46.8202],[-121.9293,46.8285],[-121.9294,46.8321],[-121.9302,46.8351],[-121.9326,46.8382],[-121.9507,46.8542],[-121.9575,46.8613],[-121.9648,46.8705],[-121.9644,46.8738],[-121.9608,46.8752],[-121.9434,46.8752]]]}}]}